{
  "type": "FeatureCollection",
  "features": [
    {
      "type": "Feature",
      "properties": {},
      "geometry": {
        "type": "Polygon",
        "coordinates": [
          [
            [
              -83.63440987969928,
              39.049596729624085
            ],
            [
              -83.64012435486956,
              39.049596729624085
            ],
            [
              -83.64012435486956,
              39.053424408877305
            ],
            [
              -83.63440987969928,
              39.053424408877305
            ],
            [
              -83.63440987969928,
              39.049596729624085
            ]
          ]
        ]
      }
    }
  ]
}
