{"type": "FeatureCollection", "features": [{"type": "Feature", "id": 38249152, "geometry": {"type": "Polygon", "coordinates": [[[-83.6373220381509, 39.0522575819637], [-83.6372307190124, 39.0523112271616], [-83.6371189209804, 39.0521955207972], [-83.6372102392206, 39.0521418769067], [-83.6373220381509, 39.0522575819637]]]}, "properties": {"OBJECTID": 38249152, "BUILD_ID": 1901590, "OCC_CLS": "Residential", "PRIM_OCC": "Single Family Dwelling", "SEC_OCC": null, "PROP_ADDR": "6687 PONDLICK ROAD", "PROP_CITY": "HILLSBORO", "PROP_ST": "Ohio", "PROP_ZIP": "45133", "OUTBLDG": null, "HEIGHT": null, "SQMETERS": 169.1116, "SQFEET": 1820.3, "H_ADJ_ELEV": null, "L_ADJ_ELEV": null, "FIPS": "39071", "CENSUSCODE": "39071955102", "PROD_DATE": 1577318400000, "SOURCE": "ORNL", "USNG": "17S KD 71790 25881", "LONGITUDE": -83.63721617944243, "LATITUDE": 39.052222101584285, "IMAGE_NAME": "1040010013AFAC00", "IMAGE_DATE": 1446940800000, "VAL_METHOD": "Automated", "REMARKS": null, "UUID": "{12c08f21-ec76-489a-8a65-45fec0aca073}", "STATE_FIPS": "39", "B_CODE": null, "POP_MEDIAN": null, "PROP_CNTY": "Highland", "GlobalID": "adab24f7-9175-497a-a468-c1d41ac21de9", "Shape__Area": 264.30859375, "Shape__Length": 66.96503734754899, "POP_CI95_LOWER": null, "POP_CI95_UPPER": null}}, {"type": "Feature", "id": 38249091, "geometry": {"type": "Polygon", "coordinates": [[[-83.6377937668628, 39.0514230161005], [-83.6375368711495, 39.0513544189425], [-83.6375646524479, 39.0512911626642], [-83.6378215481613, 39.0513597598836], [-83.6377937668628, 39.0514230161005]]]}, "properties": {"OBJECTID": 38249091, "BUILD_ID": 1901529, "OCC_CLS": "Residential", "PRIM_OCC": "Single Family Dwelling", "SEC_OCC": null, "PROP_ADDR": "6687 PONDLICK ROAD", "PROP_CITY": "HILLSBORO", "PROP_ST": "Ohio", "PROP_ZIP": "45133", "OUTBLDG": null, "HEIGHT": null, "SQMETERS": 179.8132, "SQFEET": 1935.492, "H_ADJ_ELEV": null, "L_ADJ_ELEV": null, "FIPS": "39071", "CENSUSCODE": "39071955102", "PROD_DATE": 1577318400000, "SOURCE": "ORNL", "USNG": "17S KD 71748 25786", "LONGITUDE": -83.63765892832362, "LATITUDE": 39.051351673948936, "IMAGE_NAME": "1040010013AFAC00", "IMAGE_DATE": 1446940800000, "VAL_METHOD": "Automated", "REMARKS": null, "UUID": "{2e93f8ab-53bd-4765-a6df-e62802ad17bb}", "STATE_FIPS": "39", "B_CODE": null, "POP_MEDIAN": null, "PROP_CNTY": "Highland", "GlobalID": "c8fb0a5b-3356-4f8e-ac56-0041a8813801", "Shape__Area": 289.72265625, "Shape__Length": 79.64239422463184, "POP_CI95_LOWER": null, "POP_CI95_UPPER": null}}, {"type": "Feature", "id": 38249029, "geometry": {"type": "Polygon", "coordinates": [[[-83.6397407385787, 39.0504274909667], [-83.639605366957, 39.0505095901329], [-83.6395000781175, 39.0504040333469], [-83.6396354506375, 39.0503219347555], [-83.6397407385787, 39.0504274909667]]]}, "properties": {"OBJECTID": 38249029, "BUILD_ID": 1901467, "OCC_CLS": "Residential", "PRIM_OCC": "Single Family Dwelling", "SEC_OCC": null, "PROP_ADDR": "6688 PONDLICK ROAD", "PROP_CITY": "WINCHESTER", "PROP_ST": "Ohio", "PROP_ZIP": "45697", "OUTBLDG": null, "HEIGHT": null, "SQMETERS": 216.8318, "SQFEET": 2333.956, "H_ADJ_ELEV": null, "L_ADJ_ELEV": null, "FIPS": "39071", "CENSUSCODE": "39071955102", "PROD_DATE": 1577318400000, "SOURCE": "ORNL", "USNG": "17S KD 71576 25687", "LONGITUDE": -83.63962040861824, "LATITUDE": 39.050415762113815, "IMAGE_NAME": "1040010013AFAC00", "IMAGE_DATE": 1446940800000, "VAL_METHOD": "Automated", "REMARKS": null, "UUID": "{69e50859-6fd5-4f6b-b317-da6bd9d2f880}", "STATE_FIPS": "39", "B_CODE": null, "POP_MEDIAN": null, "PROP_CNTY": "Highland", "GlobalID": "e332d89d-ceab-498f-9723-016e2e5970de", "Shape__Area": 365.94921875, "Shape__Length": 76.51935569893922, "POP_CI95_LOWER": null, "POP_CI95_UPPER": null}}, {"type": "Feature", "id": 38249188, "geometry": {"type": "Polygon", "coordinates": [[[-83.6367648598926, 39.0526992922636], [-83.6368249913211, 39.0525981971301], [-83.6368898182436, 39.0526216407666], [-83.6368296868151, 39.052722735169], [-83.6367648598926, 39.0526992922636]]]}, "properties": {"OBJECTID": 38249188, "BUILD_ID": 1901626, "OCC_CLS": "Residential", "PRIM_OCC": "Single Family Dwelling", "SEC_OCC": null, "PROP_ADDR": "6687 PONDLICK ROAD", "PROP_CITY": "HILLSBORO", "PROP_ST": "Ohio", "PROP_ZIP": "45133", "OUTBLDG": null, "HEIGHT": null, "SQMETERS": 83.26552, "SQFEET": 896.2617, "H_ADJ_ELEV": null, "L_ADJ_ELEV": null, "FIPS": "39071", "CENSUSCODE": "39071955102", "PROD_DATE": 1577318400000, "SOURCE": "ORNL", "USNG": "17S KD 71825 25929", "LONGITUDE": -83.63682085642414, "LATITUDE": 39.05265812175443, "IMAGE_NAME": "1040010013AFAC00", "IMAGE_DATE": 1446940800000, "VAL_METHOD": "Automated", "REMARKS": null, "UUID": "{160b70b3-a2b4-4f5d-bcc9-1ebebe5f07db}", "STATE_FIPS": "39", "B_CODE": null, "POP_MEDIAN": null, "PROP_CNTY": "Highland", "GlobalID": "80351305-477b-476f-afff-bae6c8d5b65b", "Shape__Area": 127.07421875, "Shape__Length": 47.847227556708006, "POP_CI95_LOWER": null, "POP_CI95_UPPER": null}}, {"type": "Feature", "id": 38249019, "geometry": {"type": "Polygon", "coordinates": [[[-83.6353480190602, 39.050246850699], [-83.6352242896045, 39.0504227129379], [-83.6350864619888, 39.0503637538922], [-83.6352101923428, 39.0501878922041], [-83.6353480190602, 39.050246850699]]]}, "properties": {"OBJECTID": 38249019, "BUILD_ID": 1901457, "OCC_CLS": "Residential", "PRIM_OCC": "Single Family Dwelling", "SEC_OCC": null, "PROP_ADDR": "6729 PONDLICK ROAD", "PROP_CITY": "HILLSBORO", "PROP_ST": "Ohio", "PROP_ZIP": "45133", "OUTBLDG": null, "HEIGHT": null, "SQMETERS": 294.1922, "SQFEET": 3166.655, "H_ADJ_ELEV": null, "L_ADJ_ELEV": null, "FIPS": "39071", "CENSUSCODE": "39071955102", "PROD_DATE": 1577318400000, "SOURCE": "ORNL", "USNG": "17S KD 71956 25665", "LONGITUDE": -83.63521663185273, "LATITUDE": 39.05031775246317, "IMAGE_NAME": "1040010013AFAC00", "IMAGE_DATE": 1446940800000, "VAL_METHOD": "Automated", "REMARKS": null, "UUID": "{e041f173-13bb-4444-b237-8c0c52eee168}", "STATE_FIPS": "39", "B_CODE": null, "POP_MEDIAN": null, "PROP_CNTY": "Highland", "GlobalID": "3dd0925f-e57e-4c45-9486-2d1bb27cf537", "Shape__Area": 503.1796875, "Shape__Length": 92.48516037819277, "POP_CI95_LOWER": null, "POP_CI95_UPPER": null}}, {"type": "Feature", "id": 38249021, "geometry": {"type": "Polygon", "coordinates": [[[-83.6390712529435, 39.0502956838079], [-83.6390373262702, 39.0504494368274], [-83.638811974898, 39.0504192031899], [-83.638845900673, 39.0502654501046], [-83.6390712529435, 39.0502956838079]]]}, "properties": {"OBJECTID": 38249021, "BUILD_ID": 1901459, "OCC_CLS": "Residential", "PRIM_OCC": "Single Family Dwelling", "SEC_OCC": null, "PROP_ADDR": "6688 PONDLICK ROAD", "PROP_CITY": "WINCHESTER", "PROP_ST": "Ohio", "PROP_ZIP": "45697", "OUTBLDG": null, "HEIGHT": null, "SQMETERS": 332.321, "SQFEET": 3577.07, "H_ADJ_ELEV": null, "L_ADJ_ELEV": null, "FIPS": "39071", "CENSUSCODE": "39071955102", "PROD_DATE": 1577318400000, "SOURCE": "ORNL", "USNG": "17S KD 71634 25679", "LONGITUDE": -83.63894161354987, "LATITUDE": 39.050357443712876, "IMAGE_NAME": "1040010013AFAC00", "IMAGE_DATE": 1446940800000, "VAL_METHOD": "Automated", "REMARKS": null, "UUID": "{a086c638-1271-4af4-bd74-f1bdac5b19bc}", "STATE_FIPS": "39", "B_CODE": null, "POP_MEDIAN": null, "PROP_CNTY": "Highland", "GlobalID": "88d6e426-abbd-490f-bab8-06edf935b9a9", "Shape__Area": 569.25, "Shape__Length": 95.63676935450707, "POP_CI95_LOWER": null, "POP_CI95_UPPER": null}}, {"type": "Feature", "id": 38249183, "geometry": {"type": "Polygon", "coordinates": [[[-83.6389285699337, 39.0525133657854], [-83.6388944662923, 39.0526215842608], [-83.6387834336248, 39.0526003101689], [-83.6388175381646, 39.0524920930561], [-83.6389285699337, 39.0525133657854]]]}, "properties": {"OBJECTID": 38249183, "BUILD_ID": 1901621, "OCC_CLS": "Agriculture", "PRIM_OCC": "Agriculture", "SEC_OCC": null, "PROP_ADDR": null, "PROP_CITY": null, "PROP_ST": "Ohio", "PROP_ZIP": null, "OUTBLDG": null, "HEIGHT": null, "SQMETERS": 127.4169, "SQFEET": 1371.503, "H_ADJ_ELEV": null, "L_ADJ_ELEV": null, "FIPS": "39071", "CENSUSCODE": "39071955102", "PROD_DATE": 1577318400000, "SOURCE": "ORNL", "USNG": "17S KD 71649 25923", "LONGITUDE": -83.63885600192425, "LATITUDE": 39.05255683800873, "IMAGE_NAME": "1040010013AFAC00", "IMAGE_DATE": 1446940800000, "VAL_METHOD": "Automated", "REMARKS": null, "UUID": "{084ccde5-c1a8-4b10-947f-2d2797592237}", "STATE_FIPS": "39", "B_CODE": null, "POP_MEDIAN": null, "PROP_CNTY": "Highland", "GlobalID": "4806ec08-e203-4e5f-a829-8c3a9b278ea1", "Shape__Area": 203.31640625, "Shape__Length": 57.40256148283332, "POP_CI95_LOWER": null, "POP_CI95_UPPER": null}}]}