{"type": "FeatureCollection", "features": [{"type": "Feature", "id": 6064463, "geometry": {"type": "LineString", "coordinates": [[-83.62800500038325, 39.019242000106566], [-83.62771699960486, 39.01974600027611], [-83.62762600026657, 39.019898000286766], [-83.62755000009858, 39.02001499976022], [-83.62723100025637, 39.0205370000449], [-83.62686399983524, 39.02106700015599], [-83.62663899970435, 39.02139699973245], [-83.62646600035029, 39.02163500021782], [-83.62596500003487, 39.022355000215576], [-83.6256649995609, 39.02277799982206], [-83.62558199972023, 39.022905000265816], [-83.62548200016111, 39.023040999834095], [-83.62472499975266, 39.02414499990754], [-83.62453599960676, 39.02440500022585], [-83.62418599980239, 39.02491999980482], [-83.62349600023941, 39.02588000008936], [-83.62247199986726, 39.02736900018928], [-83.6223610004375, 39.02752099986129], [-83.6221940000329, 39.02777100016275], [-83.62213899978131, 39.027862000181386], [-83.62210399962122, 39.02793099978002], [-83.62208500025295, 39.027991999905105], [-83.62206699981131, 39.02808400034882], [-83.62206699981131, 39.02817099992249], [-83.62208799972771, 39.028251000021505], [-83.62214100032948, 39.02830799983617], [-83.622221999622, 39.028358000247906], [-83.62239400004945, 39.02840999994079], [-83.62317400002412, 39.02861899972945], [-83.6233129999413, 39.028668999921194], [-83.62341500004855, 39.028735000120136], [-83.62346799975201, 39.0288050002638], [-83.62349799988922, 39.0288880003443], [-83.62349799988922, 39.028984000315866], [-83.62333300003279, 39.02963600016176], [-83.62306299969606, 39.03079199985165], [-83.62301199964242, 39.03108999968364], [-83.62298599970315, 39.03123899982631], [-83.62286400040274, 39.032077000101886], [-83.62281599982386, 39.03234200031032], [-83.62279200043271, 39.032431000125804], [-83.62275899992244, 39.03252800011857], [-83.62268199992955, 39.03269699965114], [-83.62262800040118, 39.032795999866785], [-83.62240499992011, 39.03314200025712], [-83.62234299999582, 39.033254999688864], [-83.62229699996506, 39.033370000209516], [-83.6222860000944, 39.033463999804376], [-83.62228699991933, 39.033567000078015], [-83.62230199998794, 39.03367499986493], [-83.62235600041463, 39.03391799982872], [-83.62238900002657, 39.03404200001379], [-83.62270600021898, 39.03492099986512], [-83.62274800005179, 39.03504900003653], [-83.62277700036408, 39.03515599974019], [-83.62279800028048, 39.03526100015923], [-83.62286500022763, 39.0357050000669], [-83.62297700038064, 39.03638300005943], [-83.62303099990899, 39.03662900015267], [-83.62306900044214, 39.03674599984541], [-83.62344299963765, 39.03759100024745], [-83.62378300029458, 39.03829000029375], [-83.62391200016602, 39.038578999742796], [-83.62399900020465, 39.03882900000265], [-83.62403199981661, 39.03899299983221], [-83.62404199986234, 39.03928400029885], [-83.62404000021253, 39.03939199972108], [-83.624016999748, 39.03959999997807], [-83.62392300003667, 39.040149999807156], [-83.62391399981583, 39.04026500027051], [-83.62391399981583, 39.0404670003339], [-83.62395599964862, 39.04071200032998], [-83.62399900020465, 39.04081799999949], [-83.62406899962654, 39.040897999736885], [-83.62418900017543, 39.04097599972509], [-83.62459699970614, 39.04120400021652], [-83.62494900005863, 39.04139200006828], [-83.62524399961144, 39.041553000066955], [-83.62536599981016, 39.04162300007325], [-83.62560299963663, 39.04175899990722], [-83.62578500010981, 39.041853000203766], [-83.6260090004158, 39.041979000048805], [-83.62618199976984, 39.042069000099524], [-83.62683600024616, 39.04242800004491], [-83.62690900004108, 39.0424729997986], [-83.62724499960176, 39.0426480001963], [-83.62747899995347, 39.04278199984495], [-83.62799600016243, 39.043108000011564], [-83.62836400040847, 39.04331000031868], [-83.62862600034929, 39.04342199974271], [-83.62876500026644, 39.04346899984682], [-83.62890500000854, 39.04351100025482], [-83.62905399997145, 39.04354699978728], [-83.63005800025212, 39.04375300009252], [-83.63053299972995, 39.04385900008323], [-83.63125499997832, 39.04400300018444], [-83.63258200029917, 39.0442810002859], [-83.6327749997447, 39.04431799990571], [-83.63295300001994, 39.04434600007654], [-83.63313700014297, 39.04436299985091], [-83.63355399989446, 39.044390000222855], [-83.63370299985738, 39.044407999767444], [-83.63379200044415, 39.04443100030287], [-83.63385099999537, 39.04444599979865], [-83.63402599989757, 39.04451100013516], [-83.6342329995868, 39.044603000004706], [-83.63429200003635, 39.044628999809625], [-83.6344490003952, 39.0447060000881], [-83.63457200041884, 39.04474799976065], [-83.63472499968141, 39.04479099988126], [-83.63516599972236, 39.044890999671125], [-83.63561799963398, 39.044975999939325], [-83.6358510001608, 39.04503199974827], [-83.63617300037608, 39.045101999795804], [-83.63674199956523, 39.04524199968286], [-83.63685899974111, 39.0452790001947], [-83.63692099966539, 39.04531099975434], [-83.63698199976476, 39.04536799976257], [-83.63701100007707, 39.04543800017484], [-83.63701199990199, 39.04552100025484], [-83.63699900038151, 39.045605000001224], [-83.63687600035784, 39.04597000006451], [-83.6367039999304, 39.04657299986992], [-83.63635099975299, 39.04765300011897], [-83.63622299970648, 39.0480709996705], [-83.63599799957558, 39.04875900027854], [-83.63598199968206, 39.0488660001492], [-83.63598800042816, 39.0489729998577], [-83.6360129996442, 39.04906899975166], [-83.63605100017735, 39.049143000234864], [-83.63610499970571, 39.049209999860715], [-83.63617300037608, 39.049269000332444], [-83.63676400020486, 39.04972099985188], [-83.63685999956601, 39.04979399994742], [-83.63693900010703, 39.04987100017671], [-83.63700900042724, 39.04995300022895], [-83.63771200040902, 39.05102900027761], [-83.63797599999968, 39.051414000131], [-83.63804100029701, 39.05147399983757], [-83.63809400000045, 39.05150699975908], [-83.63815199972677, 39.051532999813276], [-83.6384839999878, 39.05161700008379], [-83.63917000025114, 39.05175599993835], [-83.63938699998613, 39.05179499987848], [-83.63977399960041, 39.05187499974195], [-83.64118600031007, 39.05213099981232], [-83.64136100021227, 39.05217400032175], [-83.64153000026667, 39.052230000004904], [-83.64183499986518, 39.05235000007344], [-83.64203800025479, 39.05241599978007], [-83.64224699959384, 39.05246999993808], [-83.64338099957084, 39.05270799972904], [-83.64378999982476, 39.05280000008401], [-83.64430899968353, 39.05293300034736], [-83.64473499965588, 39.053050999904514], [-83.64507799978756, 39.05315699989431], [-83.64543799963768, 39.05328800017523], [-83.6460669999996, 39.05352699965157], [-83.64624799974956, 39.05357899965815], [-83.64634099963598, 39.05359999999874], [-83.64645500033711, 39.05361799998678], [-83.64663899956182, 39.053645999959016], [-83.64689600037809, 39.05370300021695], [-83.64716199961855, 39.05377100004839], [-83.64777500008698, 39.053939000048864], [-83.64943499959543, 39.05437800017718], [-83.6501369997523, 39.05454600012874], [-83.65030400015688, 39.054575999704355], [-83.65056500027279, 39.05460799993516], [-83.65092000010004, 39.05464600005966], [-83.65113099998723, 39.05466300014543], [-83.65125999985867, 39.054667999718525], [-83.65135199992017, 39.05466300014543], [-83.6514459996315, 39.054649999998134], [-83.65152599999745, 39.054632999909224], [-83.65166800028767, 39.054592999806985], [-83.65211299962827, 39.054388000060904], [-83.65218600032152, 39.05436100002279], [-83.65226800033729, 39.05433700029029], [-83.6523400003073, 39.054324999723356], [-83.65247199965347, 39.05432299974492], [-83.6525439996235, 39.05433300033404], [-83.65263099966214, 39.05435199977524], [-83.6529600004484, 39.05443899979474], [-83.65335700010844, 39.054534000294964], [-83.65428699987096, 39.05470300020803], [-83.65700300043693, 39.05522999984126], [-83.65724600011119, 39.055280000037676], [-83.65778400023653, 39.05538200027282], [-83.65797699968206, 39.05541499976338], [-83.65815999998017, 39.0554539997756], [-83.65826100026251, 39.05547300031033], [-83.65835599979876, 39.055490000197004], [-83.6588090004336, 39.05558699992359], [-83.65931599969849, 39.055710999746736], [-83.65975500008963, 39.05580399999435], [-83.66030699956036, 39.05590699978816], [-83.66041799988845, 39.05591599983752], [-83.66052800039161, 39.05591300028624], [-83.66063700017156, 39.055897999737695]]}, "properties": {"BASENAME": "26", "MTFCC": "S1400", "NAME": "Co Hwy 26", "OBJECTID": 6064463, "OID": "110448194455", "PREDIR": null, "PREDIRABRV": null, "PREQUAL": null, "PREQUALABRV": null, "PRETYP": 210, "PRETYPEABRV": "Co Hwy", "RTTYP": "C", "SUFDIR": null, "SUFDIRABRV": null, "SUFQUAL": null, "SUFQUALABRV": null, "SUFTYP": null, "SUFTYPEABRV": null}}]}