{
  "type": "FeatureCollection",
  "features": [
    {
      "type": "Feature",
      "properties": {},
      "geometry": {
        "type": "Polygon",
        "coordinates": [
          [
            [
              139.00192731141794,
              36.512202503557276
            ],
            [
              139.0285502729435,
              36.512202503557276
            ],
            [
              139.0285502729435,
              36.49255984404839
            ],
            [
              139.00192731141794,
              36.49255984404839
            ],
            [
              139.00192731141794,
              36.512202503557276
            ]
          ]
        ]
      }
    }
  ]
}
