{"type":"FeatureCollection","features":[{"type":"Feature","geometry":{"type":"LineString","coordinates":[[-83.64107810158535,39.051686547933343],[-83.640944501201091,39.051532814374518],[-83.640712235316045,39.051313147672261],[-83.64049410196175,39.051126348217835],[-83.640290034544037,39.051005547688106],[-83.640093035472802,39.050917614171929],[-83.639853635687672,39.05083514791675],[-83.639663501018234,39.050796747023803],[-83.639487502001145,39.050774614905883],[-83.639353700793848,39.050796614500989],[-83.639008834578703,39.05086234739192],[-83.638748234956893,39.050911615101349],[-83.6385792345705,39.050917014588137],[-83.638410235224626,39.050884148175761],[-83.638325834402423,39.050812615010308],[-83.63822730104944,39.050647947204652],[-83.638136034784878,39.050466747529399],[-83.63801650137772,39.050131814013099],[-83.637946234126801,39.049884747557797],[-83.637875900281713,39.049780414332581],[-83.63771403379539,39.049665014315579],[-83.637481900058134,39.04955514784217],[-83.637249500984751,39.049489147067987],[-83.636953900925846,39.0494177474393],[-83.636510433723004,39.049285814259555],[-83.636341634159635,39.049203413978091],[-83.636200833281109,39.049049614407771],[-83.636200899875291,39.048978214334753],[-83.636229100423691,39.04884094695214],[-83.636313701028428,39.04861054770501],[-83.636475900485578,39.048270146706706],[-83.636560500049754,39.048012147451431],[-83.636616900106063,39.047869413824117],[-83.636701500710771,39.047743214459636],[-83.636941100278406,39.047490747173597],[-83.637067900773971,39.04736454713256],[-83.637194701269522,39.047287814281361],[-83.637610101112259,39.047079347688495],[-83.63792710079035,39.046958747113017],[-83.638173633435031,39.046821546919624],[-83.638342633821438,39.046766613108993],[-83.638532700856175,39.046678946649372],[-83.638765034375922,39.046613146832208],[-83.638898834542701,39.046541813794072],[-83.639075034382813,39.04636081288681],[-83.639244101363374,39.046124813364607],[-83.639370900818406,39.045916146965908],[-83.639378101312644,39.045740413421875],[-83.639321901038855,39.045625146609829],[-83.639307834061725,39.045542813981079],[-83.639244634116693,39.045433013019007],[-83.639209434937612,39.04531774732159],[-83.639111033732419,39.045092612870164],[-83.639033634662496,39.045021213646002],[-83.638899901089886,39.044916813434895],[-83.638780301088573,39.044823546734541],[-83.638611500484672,39.044658746978172],[-83.638449633998349,39.044472013162689],[-83.63828083443498,39.044257946735094],[-83.63816830069905,39.04415901328322],[-83.638069700751899,39.044098546475375],[-83.637844501132236,39.044060013425117]]},"properties":{"gnis_name":"Little West Fork Ohio Brush Creek","fcode":46006,"lengthkm":1.304}}]}