{"type": "FeatureCollection", "features": [{"type": "Feature", "properties": {"LAND_USE": "wood", "NAME": "", "OSM_ID": "way/91220947", "SOURCE": "OpenStreetMap"}, "geometry": {"type": "Polygon", "coordinates": [[[139.0181102, 36.4939573], [139.0180589, 36.4937277], [139.0178465, 36.49372], [139.0174243, 36.4940858], [139.0175731, 36.4937149], [139.0180256, 36.4922235], [139.018155, 36.4914274], [139.0182548, 36.4901861], [139.018364, 36.4895532], [139.0186708, 36.4887207], [139.0191626, 36.4880058], [139.0197388, 36.4873879], [139.0208546, 36.4867545], [139.0202046, 36.4875157], [139.0202953, 36.4875608], [139.0206229, 36.487235], [139.0207284, 36.4873885], [139.0210915, 36.4873949], [139.0225423, 36.4861982], [139.023111, 36.485512], [139.0238037, 36.4849429], [139.0240788, 36.4846367], [139.0239116, 36.4844499], [139.0247383, 36.4837799], [139.0252447, 36.4834387], [139.0255183, 36.483488], [139.0257111, 36.4835084], [139.0257716, 36.4833126], [139.0257694, 36.483088], [139.0257141, 36.4826428], [139.0258748, 36.4822651], [139.0257713, 36.4820185], [139.0257787, 36.4819009], [139.0268859, 36.4802721], [139.0272906, 36.4797145], [139.0274726, 36.4796229], [139.0283095, 36.4794303], [139.0284609, 36.4794264], [139.0285227, 36.479473], [139.0286014, 36.4795374], [139.0286779, 36.4796734], [139.0287724, 36.4799861], [139.02884, 36.4802082], [139.0289462, 36.4801853], [139.0287203, 36.4796204], [139.0288223, 36.4797103], [139.028968, 36.4798808], [139.0289615, 36.4797541], [139.0288182, 36.4795819], [139.0295795, 36.4801165], [139.0293849, 36.4803023], [139.0290149, 36.4808817], [139.0288503, 36.48085], [139.0282068, 36.4816926], [139.0280666, 36.4818982], [139.0280507, 36.4820994], [139.0279907, 36.4822467], [139.0279306, 36.482257], [139.0279214, 36.4820972], [139.0277298, 36.4820914], [139.0270823, 36.4825984], [139.0260895, 36.4833136], [139.0261942, 36.4833949], [139.0260306, 36.4835839], [139.0261381, 36.4836654], [139.0264628, 36.4839399], [139.0268145, 36.4842289], [139.0267749, 36.48434], [139.0268902, 36.4845713], [139.0269083, 36.484882], [139.0268404, 36.4851511], [139.0268043, 36.4853531], [139.0264241, 36.4852854], [139.0263192, 36.4852523], [139.0260113, 36.4852855], [139.0261678, 36.4850352], [139.0263777, 36.4850048], [139.0264243, 36.4845046], [139.0255726, 36.4843593], [139.0255216, 36.483927], [139.025303, 36.4839296], [139.0249896, 36.4846783], [139.0249056, 36.4848397], [139.0244428, 36.4847081], [139.0243622, 36.484967], [139.0241208, 36.4849574], [139.0241027, 36.4851653], [139.0239281, 36.4851591], [139.0239214, 36.4853167], [139.0235582, 36.4854092], [139.0231815, 36.4857289], [139.0228362, 36.4860989], [139.0226841, 36.4863723], [139.0224092, 36.4866251], [139.0221124, 36.4868487], [139.0215934, 36.4872598], [139.0211882, 36.4875767], [139.020925, 36.487791], [139.0205067, 36.4877994], [139.0203511, 36.487853], [139.0202491, 36.4878886], [139.0188186, 36.4895319], [139.0186618, 36.4897852], [139.0185988, 36.4900528], [139.0186227, 36.4906654], [139.0184293, 36.4912686], [139.0186415, 36.4918865], [139.0183808, 36.4937894], [139.0183577, 36.4943118], [139.0182232, 36.4944351], [139.0181102, 36.4939573]]]}}, {"type": "Feature", "properties": {"LAND_USE": "wood", "NAME": "", "OSM_ID": "way/91221133", "SOURCE": "OpenStreetMap"}, "geometry": {"type": "Polygon", "coordinates": [[[139.0226178, 36.4953882], [139.022584, 36.495123], [139.022645, 36.494874], [139.022709, 36.494672], [139.0227011, 36.494483], [139.0224794, 36.4944028], [139.0224972, 36.4941723], [139.022765, 36.494038], [139.0231334, 36.4939769], [139.0233813, 36.494227], [139.0237344, 36.494288], [139.0236837, 36.4945028], [139.0234986, 36.4945265], [139.023476, 36.494651], [139.0234618, 36.494769], [139.0232912, 36.4948202], [139.0230947, 36.4950487], [139.0230938, 36.4954625], [139.0232035, 36.4961092], [139.0233674, 36.4966419], [139.0236218, 36.4969697], [139.0236119, 36.4970771], [139.0238887, 36.4975181], [139.0239116, 36.4976282], [139.0236799, 36.4975956], [139.0232941, 36.4972452], [139.0228769, 36.496714], [139.0227576, 36.4963179], [139.0226178, 36.4953882]]]}}, {"type": "Feature", "properties": {"LAND_USE": "wood", "NAME": "", "OSM_ID": "way/91221263", "SOURCE": "OpenStreetMap"}, "geometry": {"type": "Polygon", "coordinates": [[[139.0233225, 36.5198542], [139.0224767, 36.5196123], [139.0217489, 36.5192193], [139.0215774, 36.5191267], [139.0212702, 36.5189598], [139.0207683, 36.518589], [139.0205656, 36.5182851], [139.020163, 36.5180418], [139.0199633, 36.5178079], [139.0197849, 36.517566], [139.0193878, 36.5171967], [139.0189675, 36.516898], [139.018636, 36.516686], [139.0182941, 36.5162492], [139.0178669, 36.5155713], [139.01763, 36.5152403], [139.0174776, 36.5148901], [139.0174275, 36.5144469], [139.017219, 36.5137481], [139.0171644, 36.513189], [139.0178262, 36.5122619], [139.0178692, 36.511719], [139.0185379, 36.5104422], [139.0188918, 36.509985], [139.0191045, 36.5097873], [139.0195065, 36.5095888], [139.0202093, 36.5089975], [139.0200433, 36.5092912], [139.0196829, 36.5097707], [139.0192233, 36.5099195], [139.0190807, 36.5102063], [139.0188399, 36.5105313], [139.0182013, 36.5120678], [139.017614, 36.5130259], [139.0175091, 36.513671], [139.0178982, 36.5148217], [139.0184082, 36.5156029], [139.0186846, 36.5161755], [139.0188334, 36.5163463], [139.0190031, 36.516616], [139.019218, 36.516823], [139.0195439, 36.5171175], [139.019942, 36.517561], [139.020402, 36.518091], [139.0208108, 36.5182123], [139.0214415, 36.5188165], [139.0224386, 36.5194186], [139.022918, 36.519575], [139.0232743, 36.5196543], [139.0235885, 36.5199522], [139.0233225, 36.5198542]]]}}, {"type": "Feature", "properties": {"LAND_USE": "wood", "NAME": "", "OSM_ID": "way/91222287", "SOURCE": "OpenStreetMap"}, "geometry": {"type": "Polygon", "coordinates": [[[139.01043, 36.51035], [139.010164, 36.510396], [139.010131, 36.510264], [139.010146, 36.510102], [139.010246, 36.509915], [139.010454, 36.509679], [139.01049, 36.5095], [139.010408, 36.509379], [139.0102831, 36.509309], [139.01007, 36.50934], [139.009814, 36.509421], [139.009613, 36.509417], [139.009498, 36.50933], [139.009492, 36.509176], [139.009623, 36.509007], [139.009829, 36.50884], [139.009929, 36.508653], [139.0099, 36.508552], [139.0099036, 36.5079355], [139.0102699, 36.5075622], [139.0103665, 36.5075708], [139.0104765, 36.5072043], [139.0105382, 36.5069197], [139.0105891, 36.5068443], [139.010919, 36.5065144], [139.0111899, 36.5065468], [139.0113831, 36.506536], [139.0114126, 36.5066158], [139.0113911, 36.5066955], [139.0113187, 36.5067387], [139.0111577, 36.5067753], [139.0110129, 36.5068874], [139.0108091, 36.5071892], [139.0107769, 36.5075945], [139.0108368, 36.5083137], [139.0116356, 36.5093693], [139.0117324, 36.5097876], [139.0117588, 36.5099144], [139.0109685, 36.509688], [139.010848, 36.510026], [139.010856, 36.510155], [139.010641, 36.510271], [139.01043, 36.51035]]]}}, {"type": "Feature", "properties": {"LAND_USE": "wood", "NAME": "", "OSM_ID": "way/91223291", "SOURCE": "OpenStreetMap"}, "geometry": {"type": "Polygon", "coordinates": [[[139.0124684, 36.5039687], [139.0122936, 36.5044011], [139.0124034, 36.5049888], [139.0115371, 36.5051613], [139.0118354, 36.5042391], [139.0118664, 36.5030261], [139.0120104, 36.5027521], [139.0121294, 36.5025701], [139.0122694, 36.5024251], [139.0123624, 36.5023531], [139.0127653, 36.5023653], [139.0129884, 36.5019951], [139.0133354, 36.5017991], [139.0135204, 36.5017101], [139.0136354, 36.5016751], [139.0137024, 36.5017311], [139.0137234, 36.5018051], [139.0134464, 36.5025155], [139.0133575, 36.5024647], [139.0131676, 36.5027069], [139.0132096, 36.5028373], [139.0127565, 36.5033123], [139.0124684, 36.5039687]]]}}, {"type": "Feature", "properties": {"LAND_USE": "wood", "NAME": "", "OSM_ID": "way/91224675", "SOURCE": "OpenStreetMap"}, "geometry": {"type": "Polygon", "coordinates": [[[139.0297221, 36.5022591], [139.0295773, 36.5024542], [139.029488, 36.5022298], [139.0294879, 36.5015562], [139.0293383, 36.5009096], [139.0297455, 36.5004345], [139.0296454, 36.4997669], [139.028859, 36.4993703], [139.0274718, 36.499437], [139.0274293, 36.4996815], [139.0274486, 36.5001659], [139.0268835, 36.5004767], [139.0260748, 36.5000905], [139.0254305, 36.4995934], [139.025749, 36.4995117], [139.0267253, 36.4999989], [139.0272947, 36.4995203], [139.0273637, 36.4990891], [139.0269774, 36.4986764], [139.0263761, 36.4986037], [139.0256325, 36.498503], [139.0257275, 36.4982766], [139.0267958, 36.4983877], [139.0273009, 36.4987153], [139.0276329, 36.4991007], [139.0283222, 36.4990728], [139.0292308, 36.4991192], [139.0299193, 36.4992888], [139.0305602, 36.4994818], [139.0305893, 36.4996441], [139.0303395, 36.4998103], [139.0302279, 36.4999469], [139.0308566, 36.5004208], [139.0311391, 36.5006053], [139.0312575, 36.5007192], [139.0312985, 36.5009242], [139.0313008, 36.5010427], [139.0313636, 36.5014997], [139.0315801, 36.5024633], [139.0313486, 36.5025489], [139.0310138, 36.501414], [139.0309217, 36.5010199], [139.0307883, 36.5007625], [139.030663, 36.5007351], [139.030124, 36.5004551], [139.0297267, 36.5007146], [139.0296493, 36.5008855], [139.0296584, 36.5014618], [139.0296217, 36.5018993], [139.0297221, 36.5022591]]]}}, {"type": "Feature", "properties": {"LAND_USE": "wood", "NAME": "", "OSM_ID": "way/91225199", "SOURCE": "OpenStreetMap"}, "geometry": {"type": "Polygon", "coordinates": [[[139.0307896, 36.4985204], [139.029346, 36.498073], [139.0284137, 36.497681], [139.0278202, 36.497402], [139.0274249, 36.4972402], [139.0272909, 36.4966921], [139.0271656, 36.4964442], [139.0270105, 36.496369], [139.026976, 36.496245], [139.0265284, 36.49615], [139.0260343, 36.4960206], [139.025326, 36.495207], [139.0254234, 36.4945955], [139.0251869, 36.49305], [139.025842, 36.493227], [139.025868, 36.493826], [139.0258697, 36.4945787], [139.0258777, 36.4949541], [139.0261481, 36.4952064], [139.0262121, 36.4954128], [139.0263626, 36.4956269], [139.0269825, 36.4958104], [139.0273071, 36.4960762], [139.0275892, 36.4963752], [139.0276202, 36.4969407], [139.0282765, 36.4970996], [139.0287929, 36.497296], [139.0290314, 36.4977399], [139.029925, 36.497982], [139.0307246, 36.4982193], [139.0307896, 36.4985204]]]}}, {"type": "Feature", "properties": {"LAND_USE": "wood", "NAME": "", "OSM_ID": "way/91226331", "SOURCE": "OpenStreetMap"}, "geometry": {"type": "Polygon", "coordinates": [[[139.013363, 36.512535], [139.013148, 36.512626], [139.013023, 36.512572], [139.012869, 36.512365], [139.012716, 36.51214], [139.012583, 36.511941], [139.0122611, 36.511679], [139.011886, 36.511442], [139.011563, 36.511206], [139.011441, 36.511024], [139.011352, 36.510758], [139.011408, 36.510631], [139.011559, 36.510556], [139.011768, 36.510662], [139.01188, 36.510827], [139.01197, 36.511033], [139.012221, 36.511183], [139.012692, 36.511421], [139.012899, 36.511596], [139.0130771, 36.511684], [139.013148, 36.511822], [139.013248, 36.512037], [139.0133811, 36.512236], [139.013482, 36.512409], [139.013363, 36.512535]]]}}, {"type": "Feature", "properties": {"LAND_USE": "wood", "NAME": "", "OSM_ID": "way/91226604", "SOURCE": "OpenStreetMap"}, "geometry": {"type": "Polygon", "coordinates": [[[139.02809, 36.49352], [139.027862, 36.493428], [139.0277816, 36.4932513], [139.0273991, 36.4930377], [139.0270604, 36.4930262], [139.0265728, 36.4931135], [139.026307, 36.4930189], [139.0263852, 36.4928497], [139.02688, 36.492769], [139.027056, 36.492734], [139.027292, 36.492788], [139.027501, 36.492865], [139.027738, 36.4930246], [139.0281744, 36.4930635], [139.028423, 36.493013], [139.028561, 36.493183], [139.028651, 36.493316], [139.0285631, 36.493447], [139.0284361, 36.493525], [139.028268, 36.493538], [139.02809, 36.49352]]]}}, {"type": "Feature", "properties": {"LAND_USE": "wood", "NAME": "", "OSM_ID": "way/91228112", "SOURCE": "OpenStreetMap"}, "geometry": {"type": "Polygon", "coordinates": [[[139.0227213, 36.498968], [139.0226314, 36.4992057], [139.022265, 36.498661], [139.0213052, 36.4976556], [139.0211517, 36.4975514], [139.0203764, 36.497025], [139.0199298, 36.4966825], [139.019424, 36.4964605], [139.0189294, 36.4963395], [139.0188585, 36.496152], [139.0187471, 36.4959855], [139.0186595, 36.4957885], [139.0185601, 36.4954718], [139.0185482, 36.495054], [139.0185778, 36.4943861], [139.0186269, 36.4942218], [139.0186869, 36.4940751], [139.0186112, 36.4944227], [139.018631, 36.4947421], [139.0187831, 36.4955184], [139.0189855, 36.4957727], [139.0191307, 36.4959287], [139.0195645, 36.4962098], [139.0199311, 36.4964545], [139.0203435, 36.496737], [139.0206462, 36.4969408], [139.0208768, 36.4970897], [139.0209506, 36.4971396], [139.0219282, 36.4978016], [139.0227213, 36.498968]]]}}, {"type": "Feature", "properties": {"LAND_USE": "wood", "NAME": "", "OSM_ID": "way/536802301", "SOURCE": "OpenStreetMap"}, "geometry": {"type": "Polygon", "coordinates": [[[139.0336148, 36.5216592], [139.03398, 36.5213674], [139.0339604, 36.5211789], [139.033742, 36.5209211], [139.0333847, 36.5210009], [139.0331086, 36.5208999], [139.0323256, 36.5206171], [139.0329187, 36.5205109], [139.0334876, 36.5201018], [139.0336386, 36.5196548], [139.0335896, 36.5192039], [139.0335147, 36.5190418], [139.0331146, 36.5190999], [139.0327327, 36.5192218], [139.0323866, 36.5194899], [139.0321426, 36.5197108], [139.0319406, 36.5197878], [139.0312226, 36.5190209], [139.0308737, 36.5186448], [139.0306376, 36.5185129], [139.0302846, 36.5183139], [139.0299058, 36.5172432], [139.0299216, 36.5168019], [139.0295588, 36.5160751], [139.0294166, 36.5154919], [139.0291266, 36.5151658], [139.0291206, 36.5146028], [139.0289256, 36.5144229], [139.0285296, 36.5143529], [139.0282126, 36.5142669], [139.0275606, 36.5132438], [139.0273106, 36.5129019], [139.0265866, 36.5122369], [139.0256676, 36.5115309], [139.0246726, 36.5107439], [139.0241176, 36.5100269], [139.0239765, 36.5095619], [139.0237739, 36.5092622], [139.0236713, 36.5082681], [139.0238521, 36.5071699], [139.0238942, 36.5065587], [139.0237201, 36.505725], [139.0235904, 36.5052912], [139.0232901, 36.5043011], [139.0235622, 36.503901], [139.0237164, 36.503679], [139.0237971, 36.5035675], [139.0238804, 36.5034014], [139.0239387, 36.5032488], [139.023984, 36.5030602], [139.0239998, 36.5029459], [139.0240153, 36.5027873], [139.0242559, 36.5027521], [139.0243083, 36.5026494], [139.0242757, 36.5023392], [139.0244706, 36.5020498], [139.0244836, 36.5007928], [139.0248626, 36.5005059], [139.024679, 36.500196], [139.0247505, 36.5001079], [139.0251868, 36.5002522], [139.0250745, 36.4996497], [139.0257436, 36.5002749], [139.0265306, 36.5006962], [139.0268587, 36.5007511], [139.0276924, 36.5007192], [139.0282073, 36.5006372], [139.0286049, 36.5005958], [139.0288118, 36.500627], [139.0289833, 36.5007576], [139.0290634, 36.5009005], [139.0291332, 36.5011084], [139.0292156, 36.5013339], [139.0292773, 36.5016165], [139.0292233, 36.5017044], [139.0291868, 36.5015074], [139.0290957, 36.5012727], [139.0290361, 36.5011078], [139.0289522, 36.5009834], [139.0289431, 36.5008969], [139.0289453, 36.5007716], [139.0288565, 36.5006964], [139.0287722, 36.5006964], [139.0286652, 36.5007215], [139.0285444, 36.5008194], [139.0284465, 36.5008832], [139.0279066, 36.5010335], [139.0277927, 36.5011406], [139.0276353, 36.5011513], [139.0270956, 36.5009401], [139.026599, 36.5008308], [139.0264008, 36.5007807], [139.0262209, 36.50089], [139.0261092, 36.5009151], [139.0260227, 36.5010244], [139.0260136, 36.5011383], [139.0261138, 36.5013001], [139.0260865, 36.5014368], [139.0259462, 36.5015749], [139.0254048, 36.5018099], [139.0253051, 36.5018582], [139.0253324, 36.5019789], [139.0255467, 36.5022902], [139.0255443, 36.5024049], [139.0254942, 36.5025393], [139.0254297, 36.5031108], [139.0256166, 36.5034279], [139.0257407, 36.5041679], [139.0259276, 36.5044938], [139.0264506, 36.5046128], [139.0273846, 36.5046749], [139.0284066, 36.5047388], [139.0290516, 36.5047108], [139.0294847, 36.5047289], [139.0300097, 36.5052519], [139.0317035, 36.5058935], [139.0309093, 36.506396], [139.0298252, 36.5059129], [139.0291141, 36.5057627], [139.0283971, 36.5056805], [139.0279458, 36.5055982], [139.0274898, 36.5058196], [139.0272937, 36.5062452], [139.0276541, 36.5065208], [139.0287966, 36.5067419], [139.0288985, 36.5069334], [139.0295881, 36.5074864], [139.0306142, 36.5081662], [139.0311143, 36.5083845], [139.0310006, 36.5086269], [139.0304096, 36.5083438], [139.0295446, 36.5078789], [139.0288546, 36.5075788], [139.0284946, 36.5074318], [139.0284016, 36.5073949], [139.0282066, 36.5072308], [139.0277496, 36.5071588], [139.0272516, 36.5070009], [139.0272156, 36.5069888], [139.0265636, 36.5067698], [139.0261906, 36.5065548], [139.0258596, 36.5062598], [139.0257163, 36.5059732], [139.0253666, 36.5057933], [139.025072, 36.5060137], [139.0250928, 36.5062242], [139.0251229, 36.5064956], [139.0249881, 36.5066019], [139.0251977, 36.5068368], [139.0252693, 36.507031], [139.0250211, 36.5074883], [139.0257006, 36.5077999], [139.0258776, 36.5078989], [139.0263346, 36.5079709], [139.0274676, 36.5080538], [139.0278826, 36.5082218], [139.0286326, 36.5085068], [139.0293656, 36.5086478], [139.0297227, 36.5087339], [139.0301146, 36.5089978], [139.0304266, 36.5092599], [139.0308294, 36.5097046], [139.0313506, 36.5105858], [139.0314406, 36.5115031], [139.0310779, 36.5107387], [139.030794, 36.5102176], [139.0304371, 36.5097945], [139.0299386, 36.5100458], [139.0296817, 36.5095478], [139.0289051, 36.5091803], [139.027586, 36.5090029], [139.0260747, 36.508967], [139.0246753, 36.5091998], [139.0247401, 36.5096057], [139.0253895, 36.5102193], [139.0262458, 36.5108234], [139.0267602, 36.5111594], [139.0275786, 36.5110189], [139.0278777, 36.5109908], [139.0287267, 36.5113268], [139.0292626, 36.5113838], [139.0295406, 36.5114209], [139.0298682, 36.5118613], [139.0301396, 36.5122429], [139.0308656, 36.5126889], [139.0311777, 36.5129508], [139.0312296, 36.5132569], [139.0303817, 36.5136928], [139.0299986, 36.5138799], [139.0299747, 36.5140239], [139.030732, 36.5141934], [139.0316066, 36.5146856], [139.032002, 36.5154007], [139.0328651, 36.5161508], [139.0323955, 36.516788], [139.0324576, 36.5174879], [139.0327946, 36.5177458], [139.0340595, 36.5178982], [139.0342247, 36.5183827], [139.0353217, 36.5186719], [139.0357663, 36.5187632], [139.0353256, 36.519468], [139.0355097, 36.5197914], [139.0362474, 36.5199186], [139.0366139, 36.5200694], [139.0370294, 36.5200268], [139.0379127, 36.5201848], [139.038349, 36.5206562], [139.0387006, 36.5215935], [139.0390873, 36.5227597], [139.0390643, 36.5235105], [139.0392816, 36.5244049], [139.0399247, 36.5250599], [139.0402524, 36.525538], [139.0404277, 36.5258538], [139.0404826, 36.5260478], [139.0406387, 36.5262108], [139.0407756, 36.5262938], [139.0409761, 36.5264061], [139.0411973, 36.5267288], [139.0417096, 36.5273393], [139.0425328, 36.5282403], [139.043085, 36.5288018], [139.0432706, 36.5289851], [139.0445824, 36.5303037], [139.044899, 36.5306578], [139.0446338, 36.5310627], [139.0444944, 36.53132], [139.0442547, 36.5316778], [139.0441937, 36.5316809], [139.0440487, 36.5318708], [139.0438305, 36.5321583], [139.0440996, 36.5324281], [139.0444907, 36.5325529], [139.0462696, 36.5326302], [139.0468047, 36.5334667], [139.0471836, 36.5343389], [139.0474508, 36.5354399], [139.0476206, 36.5360984], [139.047506, 36.5363018], [139.0466066, 36.5363449], [139.0465482, 36.5368354], [139.0464544, 36.5370129], [139.0464691, 36.5372906], [139.0465616, 36.5375804], [139.0467261, 36.5377426], [139.0469972, 36.5378698], [139.0473985, 36.5381665], [139.0476967, 36.5383393], [139.0479266, 36.5385166], [139.0480439, 36.5386774], [139.048094, 36.5390049], [139.0485982, 36.5395782], [139.048882, 36.540051], [139.0490345, 36.5403731], [139.0491827, 36.5406731], [139.0497405, 36.5417992], [139.0498018, 36.5419153], [139.0497849, 36.5425742], [139.0505042, 36.5426927], [139.0508574, 36.5431947], [139.0508845, 36.5434591], [139.0507481, 36.543863], [139.0510347, 36.5442827], [139.0512518, 36.5446818], [139.0514628, 36.5450068], [139.0516997, 36.5451228], [139.0517028, 36.5457978], [139.0520177, 36.5459478], [139.0520138, 36.5461088], [139.0520637, 36.5464788], [139.0521188, 36.5466888], [139.0523348, 36.5468048], [139.0528108, 36.5469248], [139.0529329, 36.5470138], [139.0531598, 36.5481129], [139.0534018, 36.5495949], [139.0536637, 36.5508088], [139.0537967, 36.5513048], [139.0536647, 36.5518328], [139.0536738, 36.5522348], [139.0538128, 36.5523578], [139.0544508, 36.5523848], [139.0547918, 36.5530648], [139.0558568, 36.5543518], [139.0562017, 36.5548878], [139.0562368, 36.5550818], [139.0559867, 36.5555268], [139.0560037, 36.5556558], [139.0565368, 36.5558739], [139.0566858, 36.5562938], [139.0567608, 36.5564878], [139.0575187, 36.5564358], [139.0577688, 36.5568098], [139.0589227, 36.5584959], [139.0592076, 36.5592295], [139.0583518, 36.5590168], [139.0580216, 36.558855], [139.0575504, 36.5587788], [139.057301, 36.559194], [139.056792, 36.5590248], [139.0563285, 36.5590811], [139.0560519, 36.559131], [139.0551008, 36.5590439], [139.0545008, 36.5591148], [139.0539578, 36.5593148], [139.0535776, 36.5594426], [139.0531804, 36.559651], [139.0526812, 36.5600985], [139.0520737, 36.5605047], [139.0518138, 36.5605168], [139.0518578, 36.5603409], [139.0524169, 36.5600617], [139.0535678, 36.5588679], [139.0543248, 36.5583528], [139.0552518, 36.5577219], [139.0546198, 36.5574708], [139.0543298, 36.5571288], [139.0541808, 36.5566918], [139.0540568, 36.5560798], [139.0540568, 36.5552599], [139.0540678, 36.5548418], [139.0529697, 36.5549048], [139.0529327, 36.5563828], [139.0529897, 36.5565158], [139.0530638, 36.5566898], [139.0532548, 36.5570469], [139.0531128, 36.5571408], [139.0529557, 36.5570688], [139.0521267, 36.5566908], [139.0520288, 36.5558218], [139.0522358, 36.5555198], [139.0517898, 36.5550298], [139.0512687, 36.5542248], [139.0508598, 36.5538478], [139.0504888, 36.5535368], [139.0501087, 36.5535628], [139.0499318, 36.5534958], [139.0498008, 36.5531238], [139.0498487, 36.5528028], [139.0498938, 36.5526108], [139.0503208, 36.5522808], [139.0504247, 36.5521058], [139.0499578, 36.5516638], [139.0497027, 36.5514829], [139.0494817, 36.5515598], [139.0494167, 36.5517358], [139.0493117, 36.5519748], [139.0487147, 36.5519168], [139.0484377, 36.5518478], [139.0483795, 36.5513433], [139.048086, 36.551061], [139.0479476, 36.5507644], [139.0478097, 36.5498338], [139.0478568, 36.5495299], [139.0479988, 36.5494358], [139.0481788, 36.5494218], [139.0485368, 36.5494598], [139.0489127, 36.5495788], [139.0505278, 36.5495568], [139.0510078, 36.5495168], [139.0512108, 36.5493758], [139.0513567, 36.5490888], [139.0513227, 36.5488628], [139.0511868, 36.5487478], [139.0505688, 36.5487378], [139.0495498, 36.5488018], [139.0490697, 36.5488748], [139.0484568, 36.5486878], [139.0480207, 36.5485519], [139.0476437, 36.5484818], [139.0475437, 36.5477248], [139.0476178, 36.5471468], [139.0476698, 36.5466658], [139.0474767, 36.5464058], [139.0473787, 36.5461218], [139.0474308, 36.5456238], [139.0474177, 36.5453828], [139.0470057, 36.5450868], [139.0467928, 36.5448578], [139.0467017, 36.5444869], [139.0467488, 36.5442308], [139.0475838, 36.5435218], [139.0476098, 36.5432648], [139.0474977, 36.5429899], [139.0474007, 36.5428598], [139.0468117, 36.5432838], [139.0464908, 36.5433909], [139.0458347, 36.5425289], [139.0455987, 36.5423798], [139.0447277, 36.5421408], [139.0444317, 36.5420238], [139.0441847, 36.5415378], [139.0441518, 36.5412798], [139.0442637, 36.5407089], [139.0445307, 36.5404079], [139.0445557, 36.5401828], [139.0444217, 36.5399558], [139.0443647, 36.5398418], [139.0435807, 36.5401028], [139.0432827, 36.5400979], [139.0430857, 36.5399819], [139.0430318, 36.5397719], [139.0430967, 36.5395318], [139.0428927, 36.5389508], [139.0426347, 36.5381108], [139.0426427, 36.5378058], [139.0427267, 36.5375978], [139.0431738, 36.5372678], [139.0433387, 36.5370618], [139.0431947, 36.5364329], [139.0430587, 36.5363179], [139.0427197, 36.5363428], [139.0422417, 36.5363788], [139.0419997, 36.5363968], [139.0415237, 36.5363089], [139.0413236, 36.5361989], [139.0408988, 36.5356458], [139.0406637, 36.5354649], [139.0401947, 36.5351038], [139.0396657, 36.5347258], [139.0390607, 36.5342178], [139.0387256, 36.5338938], [139.0385357, 36.5337108], [139.0381517, 36.5331419], [139.0380537, 36.5329089], [139.0380097, 36.5322978], [139.0379197, 36.5318938], [139.0379457, 36.5316538], [139.0384117, 36.5313559], [139.0397187, 36.5309118], [139.0400187, 36.5308518], [139.0407977, 36.5308169], [139.0414337, 36.5308589], [139.0416357, 36.5307499], [139.0417997, 36.5305919], [139.0417437, 36.5304468], [139.0412467, 36.5303738], [139.0406887, 36.5303648], [139.0400097, 36.5304498], [139.0395687, 36.5305389], [139.0392067, 36.5306618], [139.0384087, 36.5306968], [139.0379667, 36.5308178], [139.0376067, 36.5308769], [139.0373677, 36.5308728], [139.0369357, 36.5305928], [139.0366807, 36.5304438], [139.0366647, 36.5302988], [139.0365325, 36.5297574], [139.0367122, 36.5295053], [139.0368785, 36.529255], [139.0369246, 36.5289945], [139.0368777, 36.5289689], [139.0366922, 36.5288138], [139.0366704, 36.5284829], [139.0369502, 36.5283178], [139.0374575, 36.5280166], [139.0371024, 36.5275009], [139.0363449, 36.5275715], [139.035926, 36.5275079], [139.035647, 36.5270264], [139.0357652, 36.5266428], [139.0358248, 36.5264967], [139.0356407, 36.5261477], [139.0353047, 36.5260585], [139.0346683, 36.5252495], [139.0345594, 36.5246843], [139.0346494, 36.5240396], [139.0343507, 36.5240148], [139.0339167, 36.5242025], [139.0335364, 36.5240281], [139.0331674, 36.5230482], [139.0330153, 36.5221614], [139.0336148, 36.5216592]]]}}, {"type": "Feature", "properties": {"LAND_USE": "railway", "NAME": "", "OSM_ID": "way/601159157", "SOURCE": "OpenStreetMap"}, "geometry": {"type": "Polygon", "coordinates": [[[139.01, 36.495038], [139.0095636, 36.4939594], [139.0095242, 36.4939651], [139.0092624, 36.4940032], [139.0092392, 36.494008], [139.0092306, 36.4940241], [139.0092102, 36.4941046], [139.0091582, 36.4941416], [139.0089598, 36.4941497], [139.0089318, 36.4941953], [139.0089286, 36.4942161], [139.0089344, 36.4942401], [139.0092912, 36.4946237], [139.0095254, 36.4946269], [139.0095379, 36.4946355], [139.0095371, 36.4948301], [139.0097072, 36.4950232], [139.01, 36.495038]]]}}, {"type": "Feature", "properties": {"LAND_USE": "cemetery", "NAME": "", "OSM_ID": "way/601159175", "SOURCE": "OpenStreetMap"}, "geometry": {"type": "Polygon", "coordinates": [[[139.0091863, 36.4939745], [139.0091541, 36.4939141], [139.0091528, 36.4938549], [139.0091528, 36.4937233], [139.0094237, 36.4936985], [139.0095055, 36.4939163], [139.0094827, 36.4939314], [139.0093647, 36.4939443], [139.009252, 36.4939519], [139.0091863, 36.4939745]]]}}, {"type": "Feature", "properties": {"LAND_USE": "farmland", "NAME": "", "OSM_ID": "way/601161451", "SOURCE": "OpenStreetMap"}, "geometry": {"type": "Polygon", "coordinates": [[[139.0095256, 36.4975884], [139.0096571, 36.497445], [139.0096168, 36.4974191], [139.0095793, 36.4973846], [139.0095511, 36.4973199], [139.0095672, 36.4972089], [139.0095417, 36.4971625], [139.0095149, 36.4971075], [139.0094733, 36.4970773], [139.0092655, 36.4970698], [139.0092681, 36.4972671], [139.0092722, 36.4974072], [139.0093446, 36.4975722], [139.0093888, 36.4975981], [139.0095256, 36.4975884]]]}}, {"type": "Feature", "properties": {"LAND_USE": "farmland", "NAME": "", "OSM_ID": "way/601162896", "SOURCE": "OpenStreetMap"}, "geometry": {"type": "Polygon", "coordinates": [[[139.0083629, 36.4984228], [139.0083857, 36.4981274], [139.0087143, 36.4981306], [139.0087236, 36.4982934], [139.0088202, 36.4982988], [139.0087049, 36.4984228], [139.008674, 36.498425], [139.0083629, 36.4984228]]]}}, {"type": "Feature", "properties": {"LAND_USE": "farmland", "NAME": "", "OSM_ID": "way/601162907", "SOURCE": "OpenStreetMap"}, "geometry": {"type": "Polygon", "coordinates": [[[139.0091173, 36.4980007], [139.0090884, 36.4979441], [139.0091246, 36.4979404], [139.0091448, 36.4979571], [139.0091454, 36.4979662], [139.0091173, 36.4980007]]]}}, {"type": "Feature", "properties": {"LAND_USE": "farmland", "NAME": "", "OSM_ID": "way/601172949", "SOURCE": "OpenStreetMap"}, "geometry": {"type": "Polygon", "coordinates": [[[139.0027235, 36.5045234], [139.0027651, 36.504145], [139.0030028, 36.5041619], [139.002981, 36.5044501], [139.0029274, 36.5045428], [139.0027235, 36.5045234]]]}}, {"type": "Feature", "properties": {"LAND_USE": "park", "NAME": "", "OSM_ID": "way/601172998", "SOURCE": "OpenStreetMap"}, "geometry": {"type": "Polygon", "coordinates": [[[139.0059818, 36.5013007], [139.0056512, 36.5011147], [139.0058865, 36.5008479], [139.0059268, 36.5008479], [139.0062332, 36.5010322], [139.0059818, 36.5013007]]]}}, {"type": "Feature", "properties": {"LAND_USE": "farmland", "NAME": "", "OSM_ID": "way/601173020", "SOURCE": "OpenStreetMap"}, "geometry": {"type": "Polygon", "coordinates": [[[139.0070473, 36.4998965], [139.0072055, 36.4998987], [139.0072136, 36.4997628], [139.0070553, 36.499765], [139.0070473, 36.4998965]]]}}, {"type": "Feature", "properties": {"LAND_USE": "farmland", "NAME": "", "OSM_ID": "way/601173025", "SOURCE": "OpenStreetMap"}, "geometry": {"type": "Polygon", "coordinates": [[[139.0073711, 36.499724], [139.0073824, 36.4995303], [139.0076172, 36.4995354], [139.0074409, 36.499724], [139.0073711, 36.499724]]]}}, {"type": "Feature", "properties": {"LAND_USE": "farmland", "NAME": "", "OSM_ID": "way/601173027", "SOURCE": "OpenStreetMap"}, "geometry": {"type": "Polygon", "coordinates": [[[139.0071197, 36.4995246], [139.0073824, 36.4995303], [139.0076172, 36.4995354], [139.0077554, 36.4994114], [139.0077259, 36.4993672], [139.0071277, 36.4993575], [139.0071197, 36.4995246]]]}}, {"type": "Feature", "properties": {"LAND_USE": "industrial", "NAME": "", "OSM_ID": "way/601173907", "SOURCE": "OpenStreetMap"}, "geometry": {"type": "Polygon", "coordinates": [[[139.0022649, 36.5053993], [139.0024084, 36.5052042], [139.0023822, 36.5051788], [139.0021308, 36.5051292], [139.0018894, 36.5053028], [139.0022649, 36.5053993]]]}}, {"type": "Feature", "properties": {"LAND_USE": "farmland", "NAME": "", "OSM_ID": "way/606001896", "SOURCE": "OpenStreetMap"}, "geometry": {"type": "Polygon", "coordinates": [[[139.0104014, 36.4963054], [139.0106414, 36.496286], [139.010455, 36.4957653], [139.0104215, 36.4957308], [139.0103558, 36.4957847], [139.0104014, 36.4963054]]]}}, {"type": "Feature", "properties": {"LAND_USE": "farmland", "NAME": "", "OSM_ID": "way/606001900", "SOURCE": "OpenStreetMap"}, "geometry": {"type": "Polygon", "coordinates": [[[139.010451, 36.4968003], [139.0102646, 36.4967798], [139.0102874, 36.4966795], [139.0104671, 36.4966925], [139.010451, 36.4968003]]]}}, {"type": "Feature", "properties": {"LAND_USE": "farmland", "NAME": "", "OSM_ID": "way/606001931", "SOURCE": "OpenStreetMap"}, "geometry": {"type": "Polygon", "coordinates": [[[139.0079753, 36.4996561], [139.0083508, 36.4996346], [139.0083334, 36.4994146], [139.0081041, 36.4994362], [139.0079753, 36.4996561]]]}}, {"type": "Feature", "properties": {"LAND_USE": "farmland", "NAME": "", "OSM_ID": "way/606001948", "SOURCE": "OpenStreetMap"}, "geometry": {"type": "Polygon", "coordinates": [[[139.0065403, 36.5010835], [139.0067147, 36.5010662], [139.0067093, 36.5009153], [139.0065403, 36.5010835]]]}}, {"type": "Feature", "properties": {"LAND_USE": "park", "NAME": "\u8fb0\u5df3\u753a\u516c\u5712", "OSM_ID": "way/628293567", "SOURCE": "OpenStreetMap"}, "geometry": {"type": "Polygon", "coordinates": [[[139.00572, 36.4927099], [139.0056896, 36.4925351], [139.0057139, 36.492491], [139.0060168, 36.4924468], [139.0060717, 36.4926773], [139.00572, 36.4927099]]]}}, {"type": "Feature", "properties": {"LAND_USE": "industrial", "NAME": "", "OSM_ID": "way/641295263", "SOURCE": "OpenStreetMap"}, "geometry": {"type": "Polygon", "coordinates": [[[139.0124449, 36.4930693], [139.0129964, 36.4928285], [139.0133245, 36.4926767], [139.0144082, 36.4920953], [139.0144341, 36.4920459], [139.0144756, 36.4913126], [139.0145588, 36.4911519], [139.0147358, 36.4906128], [139.0150174, 36.4899982], [139.0154345, 36.4891432], [139.0151187, 36.4890495], [139.0157471, 36.4879843], [139.0157524, 36.4879753], [139.0161869, 36.4871604], [139.0152723, 36.4869663], [139.0152964, 36.4867442], [139.014127, 36.4866126], [139.0134702, 36.4892484], [139.0122416, 36.4890581], [139.0119749, 36.4890392], [139.0117381, 36.4911951], [139.011748, 36.4915521], [139.0118174, 36.4918784], [139.0119263, 36.4921362], [139.0121232, 36.4925374], [139.0121729, 36.4925376], [139.0121743, 36.4925021], [139.0124073, 36.4925066], [139.0123935, 36.4928564], [139.0123295, 36.4928804], [139.0124449, 36.4930693]]]}}, {"type": "Feature", "properties": {"LAND_USE": "retail", "NAME": "", "OSM_ID": "way/1049237833", "SOURCE": "OpenStreetMap"}, "geometry": {"type": "Polygon", "coordinates": [[[139.0151277, 36.5069553], [139.0160904, 36.5067562], [139.0158094, 36.5058609], [139.0157559, 36.50583], [139.0150498, 36.5059895], [139.0149649, 36.5060976], [139.0149419, 36.5061915], [139.0151277, 36.5069553]]]}}, {"type": "Feature", "properties": {"LAND_USE": "retail", "NAME": "", "OSM_ID": "way/1049237835", "SOURCE": "OpenStreetMap"}, "geometry": {"type": "Polygon", "coordinates": [[[139.0161353, 36.5056863], [139.016153, 36.5056607], [139.0158627, 36.5047489], [139.0146258, 36.5049964], [139.0148505, 36.5058214], [139.0150204, 36.5059068], [139.0161353, 36.5056863]]]}}, {"type": "Feature", "properties": {"LAND_USE": "religious", "NAME": "\u5275\u4fa1\u5b66\u4f1a\u6e0b\u5ddd\u6587\u5316\u4f1a\u9928", "OSM_ID": "way/1049237838", "SOURCE": "OpenStreetMap"}, "geometry": {"type": "Polygon", "coordinates": [[[139.0141242, 36.5035085], [139.0153828, 36.5032523], [139.015246, 36.5028042], [139.0152077, 36.502803], [139.0138971, 36.503062], [139.0138588, 36.5030785], [139.0141242, 36.5035085]]]}}, {"type": "Feature", "properties": {"LAND_USE": "grass", "NAME": "\u30b9\u30dd\u30fc\u30c4\u30d7\u30e9\u30b6\u6e0b\u5ddd", "OSM_ID": "way/1051218262", "SOURCE": "OpenStreetMap"}, "geometry": {"type": "Polygon", "coordinates": [[[139.0077723, 36.5110202], [139.0077166, 36.5097149], [139.00688, 36.5095027], [139.0062685, 36.5106275], [139.006461, 36.5107709], [139.0066868, 36.5109007], [139.0072927, 36.5110243], [139.0077723, 36.5110202]]]}}, {"type": "Feature", "properties": {"LAND_USE": "cemetery", "NAME": "", "OSM_ID": "way/1051218275", "SOURCE": "OpenStreetMap"}, "geometry": {"type": "Polygon", "coordinates": [[[139.0021469, 36.5011676], [139.0021616, 36.500814], [139.0018773, 36.5008053], [139.0018679, 36.5008808], [139.001825, 36.5008797], [139.0018129, 36.5011363], [139.0021469, 36.5011676]]]}}, {"type": "Feature", "properties": {"LAND_USE": "park", "NAME": "\u4e26\u6728\u5150\u7ae5\u516c\u5712", "OSM_ID": "way/1051218276", "SOURCE": "OpenStreetMap"}, "geometry": {"type": "Polygon", "coordinates": [[[139.001825, 36.5008797], [139.0015162, 36.5007466], [139.0014988, 36.50011], [139.0015842, 36.5000788], [139.0016987, 36.5000601], [139.001852, 36.5000461], [139.0020713, 36.5001412], [139.0021956, 36.5001662], [139.0021616, 36.500814], [139.0018773, 36.5008053], [139.0018679, 36.5008808], [139.001825, 36.5008797]]]}}, {"type": "Feature", "properties": {"LAND_USE": "wood", "NAME": "", "OSM_ID": "way/1096169205", "SOURCE": "OpenStreetMap"}, "geometry": {"type": "Polygon", "coordinates": [[[139.0223298, 36.505511], [139.0225561, 36.5056116], [139.0226312, 36.5055857], [139.0223791, 36.5049174], [139.0227653, 36.5048785], [139.0227224, 36.504663], [139.0223523, 36.504719], [139.022245, 36.5047104], [139.0220572, 36.5042619], [139.0218427, 36.5038782], [139.0216603, 36.5037229], [139.0213599, 36.5030891], [139.0214403, 36.5024638], [139.0220626, 36.5025932], [139.022363, 36.5022698], [139.0224059, 36.5019593], [139.0223952, 36.5016014], [139.0222611, 36.5013901], [139.0220358, 36.50161], [139.0218266, 36.5017825], [139.0216227, 36.501692], [139.0209414, 36.5012909], [139.0207537, 36.501265], [139.0207644, 36.5013513], [139.0209414, 36.5015841], [139.0217944, 36.5021145], [139.0217622, 36.5022137], [139.0209092, 36.5022094], [139.0208234, 36.5020369], [139.0204962, 36.5020714], [139.0200456, 36.5015195], [139.0197452, 36.5012004], [139.0191229, 36.5009287], [139.0187527, 36.5007217], [139.018506, 36.5005018], [139.0181734, 36.5002172], [139.0180607, 36.5008683], [139.0183397, 36.501334], [139.018962, 36.5017178], [139.0198524, 36.5024898], [139.0207639, 36.5032105], [139.0214349, 36.503653], [139.0218908, 36.5044205], [139.0221784, 36.5051348], [139.0223298, 36.505511]]]}}, {"type": "Feature", "properties": {"LAND_USE": "retail", "NAME": "", "OSM_ID": "way/1212022377", "SOURCE": "OpenStreetMap"}, "geometry": {"type": "Polygon", "coordinates": [[[139.0133383, 36.4965266], [139.013257, 36.4964714], [139.013123, 36.4964935], [139.0128186, 36.4969994], [139.0131815, 36.4970747], [139.0133125, 36.4970754], [139.0133383, 36.4965266]]]}}, {"type": "Feature", "properties": {"LAND_USE": "retail", "NAME": "", "OSM_ID": "way/1383964296", "SOURCE": "OpenStreetMap"}, "geometry": {"type": "Polygon", "coordinates": [[[139.0041422, 36.4924633], [139.0045628, 36.492393], [139.0046969, 36.4928914], [139.0046339, 36.4929829], [139.0042965, 36.4930434], [139.0041422, 36.4924633]]]}}]}