{"type": "FeatureCollection", "features": [{"type": "Feature", "properties": {"WATER_TYPE": "water", "NAME": "", "OSM_ID": "way/145108371", "SOURCE": "OpenStreetMap", "natural": "water"}, "geometry": {"type": "Polygon", "coordinates": [[[139.7288193, 35.6783061], [139.7287829, 35.6782737], [139.7287442, 35.6782661], [139.7287043, 35.6782413], [139.7286797, 35.6782213], [139.7286492, 35.6781841], [139.7286386, 35.6781517], [139.7286327, 35.6781232], [139.7286468, 35.6781012], [139.7286679, 35.6780831], [139.7286937, 35.6780784], [139.728709, 35.678065], [139.7287336, 35.678045], [139.7287547, 35.6780221], [139.7287759, 35.6779907], [139.7288005, 35.677963], [139.7288251, 35.6779487], [139.7288709, 35.6779335], [139.7289296, 35.677923], [139.7289741, 35.6779087], [139.729007, 35.6778973], [139.7290574, 35.6778897], [139.729129, 35.6779011], [139.7291583, 35.6779011], [139.7291912, 35.6778897], [139.7292111, 35.6778773], [139.7292358, 35.6778487], [139.7292663, 35.6778363], [139.7292921, 35.6778306], [139.7293085, 35.6778172], [139.7293218, 35.6777868], [139.7293429, 35.6777553], [139.7293546, 35.6777334], [139.7293582, 35.6777086], [139.7293617, 35.6776838], [139.7293652, 35.6776533], [139.7293687, 35.6776248], [139.7293805, 35.6776009], [139.7293981, 35.6775885], [139.7294286, 35.6775771], [139.7294591, 35.6775733], [139.7294954, 35.6775619], [139.7295615, 35.6774999], [139.7296283, 35.6774694], [139.7296753, 35.6774523], [139.7297515, 35.6774466], [139.7298055, 35.6774466], [139.7298712, 35.6774408], [139.7299076, 35.6774294], [139.7299369, 35.6774199], [139.7299721, 35.6774151], [139.7300038, 35.6774027], [139.730039, 35.6773999], [139.7300695, 35.6773979], [139.7301117, 35.677397], [139.730154, 35.6774027], [139.7301927, 35.6774075], [139.7302326, 35.6774275], [139.7302572, 35.6774523], [139.730276, 35.6774809], [139.7302854, 35.6775037], [139.7302924, 35.6775285], [139.7302936, 35.6775542], [139.7302948, 35.6775838], [139.7302901, 35.6776], [139.7302631, 35.6776152], [139.7302173, 35.6776314], [139.7301892, 35.6776553], [139.7301669, 35.6776791], [139.7301563, 35.6777001], [139.7301411, 35.6777325], [139.7301364, 35.6777525], [139.7301258, 35.6777935], [139.7301141, 35.677823], [139.7300906, 35.6778497], [139.7300554, 35.6778735], [139.7300085, 35.677883], [139.7299569, 35.6778792], [139.7298994, 35.6778697], [139.7298536, 35.6778735], [139.7298219, 35.6778945], [139.7297973, 35.6779174], [139.7297891, 35.6779393], [139.7297891, 35.6779631], [139.7297903, 35.6779879], [139.7298008, 35.6780117], [139.7298255, 35.6780422], [139.729836, 35.6780679], [139.7298466, 35.678088], [139.729849, 35.6781189], [139.729835, 35.6781418], [139.7298244, 35.6781637], [139.7298185, 35.6781894], [139.7298185, 35.6782218], [139.7298185, 35.6782523], [139.7298138, 35.6782714], [139.7297951, 35.6783028], [139.7297728, 35.6783295], [139.7297599, 35.6783524], [139.7297481, 35.6783819], [139.7297458, 35.6783991], [139.7297628, 35.678439], [139.7297651, 35.6784809], [139.7297393, 35.6785133], [139.7297088, 35.6785229], [139.7296642, 35.6785133], [139.7296055, 35.6785019], [139.7295351, 35.678479], [139.7294835, 35.6784733], [139.7294108, 35.6784676], [139.7293404, 35.6784657], [139.7293099, 35.6784581], [139.7292676, 35.6784352], [139.7292395, 35.6784199], [139.7292066, 35.678399], [139.7291738, 35.6783761], [139.7291315, 35.6783628], [139.7290823, 35.6783551], [139.7290494, 35.6783513], [139.7290189, 35.6783513], [139.7289954, 35.6783513], [139.7289556, 35.6783589], [139.7289323, 35.6783631], [139.7289041, 35.6783617], [139.7288642, 35.678351], [139.7288344, 35.6783388], [139.7288193, 35.6783061]]]}}]}