{"type": "FeatureCollection", "features": [{"type": "Feature", "properties": {"fcode": "46000", "WATER_TYPE": "river", "AREAL": "no", "NAME": "\u5229\u6839\u5ddd", "OSM_ID": "way/60713444", "SOURCE": "OpenStreetMap", "waterway": "river"}, "geometry": {"type": "LineString", "coordinates": [[139.021744, 36.505119], [139.021713, 36.505016], [139.021606, 36.504768], [139.021561, 36.504635], [139.021545, 36.504482], [139.021484, 36.504234], [139.021454, 36.504139], [139.021423, 36.504074], [139.021301, 36.503895], [139.021301, 36.503887], [139.021103, 36.503685], [139.020935, 36.50354], [139.020706, 36.503342], [139.020584, 36.503269], [139.020325, 36.50312], [139.020035, 36.502922], [139.019608, 36.502636]]}}, {"type": "Feature", "properties": {"fcode": "46000", "WATER_TYPE": "river", "AREAL": "no", "NAME": "\u5229\u6839\u5ddd", "OSM_ID": "way/60713894", "SOURCE": "OpenStreetMap", "waterway": "river"}, "geometry": {"type": "LineString", "coordinates": [[139.021942, 36.507904], [139.022049, 36.507805], [139.022171, 36.507652], [139.022369, 36.50745], [139.022446, 36.50732], [139.022491, 36.507187], [139.022461, 36.50703], [139.022354, 36.506901], [139.022263, 36.506721], [139.022202, 36.506573], [139.022202, 36.506531], [139.022171, 36.506401], [139.02211, 36.506252], [139.021988, 36.506031], [139.021881, 36.505848], [139.021805, 36.505661], [139.02179, 36.505432], [139.021759, 36.505211], [139.021744, 36.505119]]}}, {"type": "Feature", "properties": {"fcode": "46000", "WATER_TYPE": "river", "AREAL": "no", "NAME": "\u5229\u6839\u5ddd", "OSM_ID": "way/60714039", "SOURCE": "OpenStreetMap", "waterway": "river"}, "geometry": {"type": "LineString", "coordinates": [[139.025986, 36.517807], [139.025879, 36.517887], [139.025772, 36.518051], [139.025696, 36.518154], [139.02565, 36.518257], [139.025543, 36.518379], [139.025436, 36.518547], [139.025391, 36.518715], [139.02533, 36.518894], [139.025284, 36.519119], [139.025238, 36.519222], [139.025146, 36.519375], [139.025024, 36.519569], [139.024918, 36.519707], [139.024857, 36.519756], [139.02475, 36.519779], [139.024597, 36.519764], [139.024521, 36.519722], [139.024429, 36.519676], [139.024261, 36.519627], [139.024124, 36.519619], [139.023926, 36.519577], [139.023773, 36.519531], [139.023575, 36.519493], [139.023392, 36.519451], [139.023209, 36.519382], [139.023026, 36.519306], [139.022919, 36.519253], [139.022797, 36.519199], [139.022598, 36.519123], [139.02243, 36.519077], [139.022308, 36.519012], [139.022141, 36.518974], [139.022034, 36.518932], [139.021912, 36.518845], [139.021713, 36.518734], [139.021606, 36.518616], [139.021347, 36.518391], [139.021164, 36.518196], [139.020981, 36.518009], [139.020828, 36.517872], [139.020706, 36.517723], [139.020599, 36.51762], [139.020386, 36.517387], [139.020157, 36.517113], [139.019943, 36.516933], [139.019791, 36.516766], [139.019638, 36.516563], [139.019623, 36.516529], [139.01944, 36.516365], [139.019302, 36.516193], [139.019287, 36.516155], [139.019257, 36.515938], [139.019226, 36.515907], [139.019058, 36.515602], [139.0193406, 36.5149154], [139.0192476, 36.514307], [139.0190678, 36.5130441], [139.0190491, 36.512654], [139.019058, 36.512157], [139.0190572, 36.5115219], [139.0189875, 36.5111982], [139.0189471, 36.510859], [139.019379, 36.510174], [139.019516, 36.510029], [139.019714, 36.509888], [139.019791, 36.509842], [139.019928, 36.509762], [139.020142, 36.509537], [139.020279, 36.509438], [139.020432, 36.509281], [139.020676, 36.509037], [139.020889, 36.508858], [139.021088, 36.508614], [139.021255, 36.508366], [139.021393, 36.508194], [139.0215, 36.508087], [139.021698, 36.508011], [139.021896, 36.507942], [139.021942, 36.507904]]}}, {"type": "Feature", "properties": {"fcode": "46000", "WATER_TYPE": "river", "AREAL": "no", "NAME": "\u543e\u59bb\u5ddd", "OSM_ID": "way/60714260", "SOURCE": "OpenStreetMap", "waterway": "river"}, "geometry": {"type": "LineString", "coordinates": [[139.0083437, 36.5040074], [139.0084999, 36.503872], [139.0090529, 36.5031639], [139.0101258, 36.5024372], [139.0104715, 36.5022869], [139.0122948, 36.5017765], [139.014297, 36.500885], [139.015717, 36.500248], [139.01593, 36.500153], [139.016098, 36.499981], [139.0164225, 36.4996431]]}}, {"type": "Feature", "properties": {"fcode": "46000", "WATER_TYPE": "river", "AREAL": "no", "NAME": "\u5929\u7adc\u5ddd", "OSM_ID": "way/60714347", "SOURCE": "OpenStreetMap", "waterway": "river"}, "geometry": {"type": "LineString", "coordinates": [[139.0609594, 36.5115196], [139.0608062, 36.5114356], [139.0606528, 36.5113688], [139.0602314, 36.5111581], [139.0598293, 36.5109497], [139.058975, 36.51046], [139.058701, 36.510326], [139.058426, 36.510181], [139.05809, 36.510052], [139.057907, 36.509998], [139.05748, 36.509914], [139.057083, 36.509857], [139.056824, 36.509815], [139.056534, 36.509792], [139.056259, 36.509769], [139.055573, 36.509777], [139.055389, 36.509781], [139.055069, 36.509769], [139.05481, 36.509773], [139.054672, 36.509754], [139.054489, 36.509743], [139.054337, 36.509686], [139.054199, 36.509628], [139.054031, 36.509525], [139.053925, 36.509453], [139.053772, 36.509338], [139.053635, 36.509205], [139.052902, 36.508537], [139.05249, 36.508125], [139.052338, 36.507999], [139.0521408, 36.5079078], [139.0519207, 36.5078075], [139.0515038, 36.5077168], [139.050668, 36.5075897], [139.0503508, 36.5075415], [139.0499735, 36.507439], [139.0497841, 36.5073156], [139.0493393, 36.5070862], [139.047699, 36.505886], [139.04747, 36.505741], [139.047348, 36.505672], [139.047256, 36.505604], [139.047226, 36.505516], [139.04718, 36.505234], [139.047073, 36.504955], [139.046951, 36.504822], [139.0466, 36.504482], [139.046478, 36.504368], [139.046432, 36.504322], [139.046326, 36.504284], [139.046127, 36.504242], [139.0453991, 36.5041943], [139.0448976, 36.5040965], [139.044525, 36.5040886], [139.0442716, 36.5041085], [139.0440385, 36.5041326], [139.0437864, 36.504138], [139.0435978, 36.5040969], [139.0434461, 36.5040182], [139.043045, 36.503796], [139.042664, 36.503632], [139.042404, 36.503525], [139.041855, 36.5033], [139.041641, 36.503204], [139.041504, 36.503181], [139.041321, 36.503159], [139.041214, 36.50312], [139.041046, 36.503014], [139.040909, 36.502964], [139.040573, 36.502941], [139.039642, 36.502918], [139.03923, 36.502884], [139.039139, 36.502861], [139.039063, 36.502842], [139.038742, 36.50275], [139.038437, 36.502621], [139.037888, 36.502338], [139.037552, 36.502079], [139.037415, 36.502003], [139.037292, 36.501968], [139.037003, 36.501961], [139.03688, 36.501972], [139.036667, 36.501984], [139.036545, 36.501995], [139.036316, 36.501995], [139.036163, 36.501957], [139.036057, 36.501907], [139.035812, 36.501701], [139.035706, 36.501667], [139.035492, 36.501606], [139.035278, 36.50153], [139.035095, 36.501465], [139.035004, 36.501442], [139.034622, 36.501423], [139.034317, 36.501381], [139.033737, 36.501381], [139.033646, 36.501396], [139.033585, 36.501411], [139.033463, 36.501461], [139.03331, 36.501511], [139.033264, 36.501537], [139.032944, 36.501793], [139.032822, 36.501934], [139.032776, 36.502056], [139.032745, 36.502346], [139.03273, 36.502502], [139.032669, 36.502609], [139.032608, 36.502666], [139.032501, 36.502731], [139.032333, 36.502792], [139.031845, 36.50288], [139.031769, 36.502888], [139.03154, 36.502914], [139.031128, 36.502968], [139.030777, 36.502979], [139.030731, 36.502968], [139.030655, 36.502903], [139.03064, 36.502785], [139.030716, 36.502605], [139.030716, 36.502491], [139.030685, 36.502434], [139.030579, 36.502251], [139.030457, 36.502144], [139.030212, 36.501972], [139.029892, 36.501713], [139.0298, 36.501595], [139.029724, 36.501442], [139.029709, 36.501175], [139.029739, 36.500851], [139.0298, 36.50034], [139.029846, 36.500107], [139.029861, 36.500031], [139.029892, 36.499878], [139.029877, 36.499771], [139.029831, 36.499676], [139.029755, 36.499561], [139.029633, 36.499462], [139.029449, 36.499382], [139.029373, 36.499367], [139.028961, 36.499298], [139.028397, 36.499279], [139.028229, 36.49929], [139.027939, 36.499378], [139.027847, 36.499382], [139.027756, 36.499367], [139.027634, 36.499367], [139.027527, 36.499416], [139.027435, 36.499477], [139.027405, 36.499538], [139.027405, 36.499916], [139.027374, 36.500019], [139.027298, 36.50016], [139.027222, 36.500225], [139.027069, 36.500317], [139.026993, 36.500351], [139.026901, 36.500351], [139.026779, 36.500324], [139.026657, 36.500256], [139.026596, 36.500183], [139.026535, 36.500053], [139.026459, 36.499741], [139.026382, 36.499668], [139.026306, 36.499645], [139.025879, 36.499645], [139.025848, 36.499645], [139.025803, 36.499634], [139.02562, 36.499546], [139.025467, 36.499439], [139.025345, 36.499302], [139.025131, 36.499043], [139.024963, 36.498909], [139.024857, 36.498859], [139.024765, 36.498859], [139.024658, 36.498901], [139.024612, 36.498966], [139.024567, 36.499077], [139.024536, 36.499149], [139.02449, 36.499184], [139.024414, 36.499237], [139.024323, 36.499252], [139.024155, 36.499241], [139.023834, 36.499161], [139.023727, 36.499161], [139.023605, 36.499218], [139.023529, 36.499313], [139.023529, 36.499527], [139.023544, 36.499561], [139.023712, 36.499878], [139.023758, 36.500057], [139.023849, 36.500362], [139.023849, 36.500481], [139.0237126, 36.5006333], [139.0235875, 36.5007078], [139.0235161, 36.5007026], [139.0230722, 36.5006103], [139.022965, 36.5006408], [139.0228865, 36.5007045], [139.0228067, 36.5007816], [139.0227762, 36.5009309], [139.022797, 36.50108], [139.0227394, 36.5012143], [139.0227188, 36.5012589], [139.0226589, 36.5012956], [139.0225878, 36.5013362], [139.0223953, 36.5014108], [139.022324, 36.501507], [139.022278, 36.50156], [139.022247, 36.501614], [139.022232, 36.501713], [139.022217, 36.502037], [139.0221817, 36.5020999], [139.0221125, 36.5021882], [139.0220429, 36.5022755], [139.0219298, 36.502324], [139.021835, 36.502346], [139.021683, 36.502335], [139.021637, 36.502327], [139.02153, 36.502308], [139.021332, 36.502304], [139.020905, 36.502369], [139.020538, 36.502449], [139.0201367, 36.5025217], [139.020035, 36.502567], [139.019608, 36.502636]]}}, {"type": "Feature", "properties": {"fcode": "46000", "WATER_TYPE": "river", "AREAL": "no", "NAME": "\u543e\u59bb\u5ddd", "OSM_ID": "way/60714622", "SOURCE": "OpenStreetMap", "waterway": "river"}, "geometry": {"type": "LineString", "coordinates": [[139.0077602, 36.5073961], [139.0077509, 36.5070941], [139.007712, 36.5066915], [139.0077437, 36.5061287], [139.0078991, 36.505209], [139.0080202, 36.5044934], [139.0083437, 36.5040074]]}}, {"type": "Feature", "properties": {"fcode": "46006", "WATER_TYPE": "stream", "AREAL": "no", "NAME": "\u5929\u795e\u6ca2\u5ddd", "OSM_ID": "way/60714651", "SOURCE": "OpenStreetMap", "waterway": "stream"}, "geometry": {"type": "LineString", "coordinates": [[138.9967082, 36.5023738], [138.9968415, 36.5023957], [138.996929, 36.5024314], [138.9970465, 36.5024314], [138.997121, 36.5024302], [138.997164, 36.5024406], [138.9972257, 36.5024533], [138.9973661, 36.502444], [138.9974507, 36.5024556], [138.9975496, 36.5024602], [138.9976542, 36.5024567], [138.9977331, 36.502459], [138.997789, 36.5024625], [138.9978793, 36.5024406], [138.9979782, 36.502451], [138.9980613, 36.5024394], [138.9981315, 36.5024152], [138.9982032, 36.5023634], [138.9982806, 36.5023185], [138.9984683, 36.5021168], [138.9985013, 36.5021134], [138.9985386, 36.5021203], [138.9986919, 36.5021917], [138.9987966, 36.502209], [138.998937, 36.5021906], [138.9989714, 36.5021986], [138.9990818, 36.5023069], [138.9991148, 36.5023265], [138.9991406, 36.5023231], [138.9991821, 36.5022931], [138.9993269, 36.502239], [138.9994287, 36.5022182], [138.9994645, 36.5022251], [138.9995046, 36.5022528], [138.9995132, 36.5022804], [138.999529, 36.5023346], [138.9995505, 36.5023588], [138.9995878, 36.5023738], [138.999615, 36.5023738], [138.999668, 36.5023576], [138.9997168, 36.5023334], [138.9997612, 36.5023219], [138.9999974, 36.5023713], [139.0004721, 36.5026572], [139.0012373, 36.5026484], [139.0014984, 36.5027044], [139.0016948, 36.5027816], [139.001808, 36.5028242], [139.0019571, 36.5028611], [139.0020588, 36.5028577], [139.0022322, 36.5028381], [139.0027669, 36.5028289], [139.0031489, 36.5028592], [139.0032505, 36.5029107], [139.0033688, 36.5029441]]}}, {"type": "Feature", "properties": {"fcode": "46006", "WATER_TYPE": "stream", "AREAL": "no", "NAME": "\u6edd\u6ca2", "OSM_ID": "way/60715169", "SOURCE": "OpenStreetMap", "waterway": "stream"}, "geometry": {"type": "LineString", "coordinates": [[139.0425146, 36.5134816], [139.0424282, 36.5135739], [139.0422902, 36.5135729], [139.0422073, 36.5134189], [139.0421354, 36.5134076], [139.0419714, 36.5134143], [139.0417787, 36.5134295], [139.0417202, 36.5134595], [139.0415427, 36.5137097], [139.0414383, 36.5138417], [139.041368, 36.5138832], [139.0412713, 36.5139375], [139.041113, 36.5141003], [139.0410182, 36.5141665], [139.040691, 36.5142235], [139.040464, 36.5142454], [139.04016, 36.5141649], [139.0400257, 36.5140987], [139.0399553, 36.5140367], [139.0398911, 36.5139973], [139.0397705, 36.5140141], [139.0397097, 36.5139853], [139.0396142, 36.5139053], [139.0395735, 36.5138911], [139.039456, 36.5139444], [139.0392913, 36.5139448], [139.0390817, 36.513958], [139.0389703, 36.513901], [139.038601, 36.5139412], [139.0381295, 36.514019], [139.03801, 36.513992], [139.037704, 36.513901], [139.037491, 36.513885], [139.037399, 36.513908], [139.037201, 36.513908], [139.037064, 36.51387], [139.036942, 36.513805], [139.036713, 36.513664], [139.036575, 36.513577], [139.036316, 36.513439], [139.03595, 36.513298], [139.035797, 36.51326], [139.035629, 36.513237], [139.035568, 36.513222], [139.035446, 36.51321], [139.03508, 36.51321], [139.034409, 36.513214], [139.034225, 36.513199], [139.033936, 36.513103], [139.033813, 36.51305], [139.03363, 36.512951], [139.033051, 36.512524], [139.032806, 36.512375], [139.031403, 36.511887], [139.031342, 36.511848], [139.031281, 36.511719], [139.031006, 36.511005], [139.03093, 36.510803], [139.030899, 36.510727], [139.030807, 36.510544], [139.030746, 36.510361], [139.030624, 36.510162], [139.030548, 36.510056], [139.030457, 36.509937], [139.030396, 36.509869], [139.030029, 36.509567], [139.029861, 36.509415], [139.0298, 36.509357], [139.029755, 36.509312], [139.029434, 36.509048], [139.029297, 36.508953], [139.029007, 36.508823], [139.028824, 36.508766], [139.028702, 36.508755], [139.028351, 36.508686], [139.028214, 36.50864], [139.027847, 36.508488], [139.027679, 36.508427], [139.027649, 36.508415], [139.027588, 36.5084], [139.027527, 36.508381], [139.027267, 36.50832], [139.027069, 36.508308], [139.026855, 36.508274], [139.026535, 36.508244], [139.026413, 36.508244], [139.02594, 36.508297], [139.025711, 36.508286], [139.025497, 36.508263], [139.025345, 36.508236], [139.025116, 36.508209], [139.024979, 36.508186], [139.024857, 36.508179], [139.024673, 36.508129], [139.02449, 36.508095], [139.024353, 36.508057], [139.024094, 36.508034], [139.023895, 36.507999], [139.023666, 36.507984], [139.023026, 36.507889], [139.022629, 36.507896], [139.022369, 36.507904], [139.021942, 36.507904]]}}, {"type": "Feature", "properties": {"fcode": "46000", "WATER_TYPE": "river", "AREAL": "no", "NAME": "\u9006\u5ddd", "OSM_ID": "way/60715679", "SOURCE": "OpenStreetMap", "waterway": "river"}, "geometry": {"type": "LineString", "coordinates": [[138.9948063, 36.5118829], [138.9949558, 36.5118269], [138.9950988, 36.5117679], [138.9952321, 36.5117049], [138.995341, 36.5116543], [138.9954913, 36.5116171], [138.995629, 36.5115893], [138.9957321, 36.5115749], [138.9959183, 36.5115579], [138.996216, 36.511536], [138.9965953, 36.5115715], [138.9973451, 36.511633], [138.9979144, 36.5116512], [138.998322, 36.511654], [138.998627, 36.511684], [138.9988985, 36.5117116], [138.9992722, 36.5117449], [138.9994985, 36.5117443], [138.9998535, 36.511681], [139.0002779, 36.5115985], [139.0006353, 36.5116025], [139.0009069, 36.5116644], [139.0011224, 36.5117007], [139.0012893, 36.5117084], [139.0013956, 36.5116792], [139.0015017, 36.5116318], [139.0015703, 36.5115659], [139.001735, 36.5114262], [139.0020145, 36.5112447], [139.002758, 36.510826], [139.0029713, 36.5106695], [139.0031796, 36.5105176], [139.0037401, 36.510111], [139.0041429, 36.5097872], [139.0045382, 36.5094536], [139.0046975, 36.5093239], [139.0047874, 36.5092148], [139.004959, 36.5089295], [139.0050411, 36.5088655], [139.0053123, 36.5087957], [139.005679, 36.5088254], [139.0057968, 36.5088023], [139.0059062, 36.5087397], [139.0059901, 36.5086561], [139.006042, 36.508507], [139.0062019, 36.5082996], [139.0063419, 36.5081347], [139.0065873, 36.5078384], [139.0067073, 36.5077012], [139.0069331, 36.5075735], [139.0077602, 36.5073961]]}}, {"type": "Feature", "properties": {"fcode": "46000", "WATER_TYPE": "river", "AREAL": "no", "NAME": "\u5229\u6839\u5ddd", "OSM_ID": "way/60717194", "SOURCE": "OpenStreetMap", "waterway": "river"}, "geometry": {"type": "LineString", "coordinates": [[139.019608, 36.502636], [139.0186, 36.502029], [139.018433, 36.501915], [139.017563, 36.501347], [139.017105, 36.500965], [139.016922, 36.500725], [139.016754, 36.500523], [139.0167078, 36.5001763], [139.0164225, 36.4996431]]}}, {"type": "Feature", "properties": {"fcode": "46000", "WATER_TYPE": "river", "AREAL": "no", "NAME": "\u543e\u59bb\u5ddd", "OSM_ID": "way/60717358", "SOURCE": "OpenStreetMap", "waterway": "river"}, "geometry": {"type": "LineString", "coordinates": [[139.0058653, 36.5155919], [139.0062641, 36.5152386], [139.006622, 36.5149], [139.0068432, 36.514569], [139.0071618, 36.5139482], [139.0075415, 36.5134349], [139.008179, 36.512749], [139.00827, 36.512386], [139.008408, 36.511902], [139.008484, 36.511536], [139.0085317, 36.5111559], [139.0085987, 36.5105839], [139.0085935, 36.5102705], [139.0085464, 36.5100032], [139.0083052, 36.5092337], [139.008041, 36.508282], [139.007889, 36.507904], [139.0077602, 36.5073961]]}}, {"type": "Feature", "properties": {"fcode": "46000", "WATER_TYPE": "river", "AREAL": "no", "NAME": "\u5229\u6839\u5ddd", "OSM_ID": "way/60717552", "SOURCE": "OpenStreetMap", "waterway": "river"}, "geometry": {"type": "LineString", "coordinates": [[139.0164225, 36.4996431], [139.0159853, 36.4981164], [139.0160226, 36.4964512], [139.0163835, 36.4946734], [139.0164639, 36.49337], [139.0167181, 36.4917655]]}}, {"type": "Feature", "properties": {"fcode": "46006", "WATER_TYPE": "stream", "AREAL": "no", "NAME": "\u524d\u9ed2\u6ca2", "OSM_ID": "way/60718449", "SOURCE": "OpenStreetMap", "waterway": "stream"}, "geometry": {"type": "LineString", "coordinates": [[139.025986, 36.504951], [139.025833, 36.504936], [139.025558, 36.504894], [139.025085, 36.50489], [139.024979, 36.504913], [139.024826, 36.504951], [139.024673, 36.504971], [139.024231, 36.504974], [139.023819, 36.504986], [139.023605, 36.505009], [139.023438, 36.505077], [139.023254, 36.505096], [139.023163, 36.505058], [139.022995, 36.504997], [139.022751, 36.504967], [139.022598, 36.504948], [139.022385, 36.504963], [139.022263, 36.504959], [139.02211, 36.504959], [139.021988, 36.50499], [139.02182, 36.505081], [139.021744, 36.505119]]}}, {"type": "Feature", "properties": {"fcode": "46000", "WATER_TYPE": "water", "AREAL": "yes", "NAME": "", "OSM_ID": "way/315786791", "SOURCE": "OpenStreetMap", "natural": "water"}, "geometry": {"type": "Polygon", "coordinates": [[[139.0063089, 36.5037807], [139.0063632, 36.5037484], [139.0064047, 36.5036926], [139.0063631, 36.5036263], [139.0063103, 36.5036162], [139.0061989, 36.5036208], [139.0063089, 36.5037807]]]}}, {"type": "Feature", "properties": {"fcode": "46000", "WATER_TYPE": "water", "AREAL": "yes", "NAME": "", "OSM_ID": "way/315786792", "SOURCE": "OpenStreetMap", "natural": "water"}, "geometry": {"type": "Polygon", "coordinates": [[[139.0056226, 36.5040599], [139.005714, 36.504081], [139.0057752, 36.5040691], [139.0058365, 36.5040514], [139.0059407, 36.50401], [139.0058767, 36.5039263], [139.0058451, 36.5038849], [139.0057047, 36.5039403], [139.0056607, 36.5039733], [139.0056267, 36.5040206], [139.0056226, 36.5040599]]]}}, {"type": "Feature", "properties": {"fcode": "33600", "WATER_TYPE": "canal", "AREAL": "no", "NAME": "", "OSM_ID": "way/315786793", "SOURCE": "OpenStreetMap", "waterway": "canal"}, "geometry": {"type": "LineString", "coordinates": [[139.002882, 36.5056782], [139.0031263, 36.5051657], [139.003412, 36.5045639], [139.0035718, 36.5042042], [139.0036212, 36.5041214], [139.0036698, 36.5040757], [139.0037171, 36.5040393], [139.0037829, 36.5040161], [139.0038604, 36.5040035], [139.0039551, 36.5040036], [139.0041938, 36.5039967]]}}, {"type": "Feature", "properties": {"fcode": "33600", "WATER_TYPE": "canal", "AREAL": "no", "NAME": "", "OSM_ID": "way/315786795", "SOURCE": "OpenStreetMap", "waterway": "canal"}, "geometry": {"type": "LineString", "coordinates": [[139.0043045, 36.5039935], [139.0056267, 36.5040206], [139.0058767, 36.5039263]]}}, {"type": "Feature", "properties": {"fcode": "33600", "WATER_TYPE": "canal", "AREAL": "no", "NAME": "", "OSM_ID": "way/315786798", "SOURCE": "OpenStreetMap", "waterway": "canal"}, "geometry": {"type": "LineString", "coordinates": [[139.0026346, 36.506212], [139.002882, 36.5056782]]}}, {"type": "Feature", "properties": {"fcode": "46006", "WATER_TYPE": "stream", "AREAL": "no", "NAME": "\u5929\u795e\u6ca2\u5ddd", "OSM_ID": "way/425548891", "SOURCE": "OpenStreetMap", "waterway": "stream"}, "geometry": {"type": "LineString", "coordinates": [[139.0033688, 36.5029441], [139.0035426, 36.5029808], [139.0041021, 36.5030368], [139.0043232, 36.5030957], [139.0047215, 36.503283]]}}, {"type": "Feature", "properties": {"fcode": "46006", "WATER_TYPE": "stream", "AREAL": "no", "NAME": "\u5929\u795e\u6ca2\u5ddd", "OSM_ID": "way/425548894", "SOURCE": "OpenStreetMap", "waterway": "stream"}, "geometry": {"type": "LineString", "coordinates": [[139.0047215, 36.503283], [139.0047469, 36.5032861], [139.0047689, 36.5032693], [139.0049538, 36.5031047], [139.0049853, 36.5030993], [139.0050415, 36.5030993], [139.0050822, 36.5031286], [139.0051226, 36.503169], [139.0052186, 36.5032577], [139.0052643, 36.5033468], [139.005325, 36.5033815], [139.0053993, 36.5033954], [139.0059717, 36.5033758], [139.0061206, 36.5033842], [139.00624, 36.5034056], [139.0066192, 36.5034838], [139.0069511, 36.5034831], [139.0071072, 36.5034667], [139.0071852, 36.5034481], [139.0072419, 36.5034205]]}}, {"type": "Feature", "properties": {"fcode": "33603", "WATER_TYPE": "ditch", "AREAL": "no", "NAME": "", "OSM_ID": "way/434872210", "SOURCE": "OpenStreetMap", "waterway": "ditch"}, "geometry": {"type": "LineString", "coordinates": [[139.015785, 36.5147663], [139.0152397, 36.5136449], [139.0148951, 36.5130816], [139.0145546, 36.5124952], [139.0142821, 36.5119796], [139.0141191, 36.5116012], [139.0138483, 36.5110146], [139.0136992, 36.5106595], [139.0135691, 36.5103352], [139.0134559, 36.5099695], [139.0133945, 36.5096863], [139.0133597, 36.5093627], [139.0133726, 36.5088192], [139.013332, 36.5083839]]}}, {"type": "Feature", "properties": {"fcode": "33600", "WATER_TYPE": "canal", "AREAL": "no", "NAME": "", "OSM_ID": "way/441720562", "SOURCE": "OpenStreetMap", "waterway": "canal"}, "geometry": {"type": "LineString", "coordinates": [[138.9999018, 36.5089484], [139.000575, 36.50847], [139.0015113, 36.5078419], [139.0019618, 36.507508], [139.0020498, 36.5074005], [139.0026346, 36.506212]]}}, {"type": "Feature", "properties": {"fcode": "46000", "WATER_TYPE": "water", "AREAL": "yes", "NAME": "", "OSM_ID": "way/591859940", "SOURCE": "OpenStreetMap", "natural": "water"}, "geometry": {"type": "Polygon", "coordinates": [[[139.007922, 36.5121368], [139.0077067, 36.5124858], [139.0074552, 36.5129645], [139.0067041, 36.5135767], [139.0055776, 36.51412], [139.0043009, 36.5148443], [139.003979, 36.5152237], [139.0046432, 36.5153503], [139.0048905, 36.515056], [139.0051377, 36.5148529], [139.0057493, 36.5144735], [139.0063823, 36.5143356], [139.0067108, 36.5141991], [139.006629, 36.5146115], [139.007026, 36.5148874], [139.0071875, 36.5142453], [139.0075732, 36.5139734], [139.0083813, 36.5127642], [139.007922, 36.5121368]]]}}, {"type": "Feature", "properties": {"fcode": "46006", "WATER_TYPE": "stream", "AREAL": "no", "NAME": "", "OSM_ID": "way/601161460", "SOURCE": "OpenStreetMap", "waterway": "stream"}, "geometry": {"type": "LineString", "coordinates": [[139.0089972, 36.4965976], [139.0090844, 36.4966245], [139.0093017, 36.496659], [139.0096048, 36.4967216], [139.0097737, 36.4967766], [139.0098448, 36.4967809], [139.010059, 36.4967744]]}}, {"type": "Feature", "properties": {"fcode": "46000", "WATER_TYPE": "river", "AREAL": "no", "NAME": "\u5e73\u6ca2\u5ddd", "OSM_ID": "way/722143043", "SOURCE": "OpenStreetMap", "waterway": "river"}, "geometry": {"type": "LineString", "coordinates": [[139.009705, 36.4934122], [139.0105267, 36.4934833], [139.0112858, 36.4934669], [139.0116739, 36.4934355], [139.0120782, 36.4933522], [139.0122425, 36.4933025], [139.0139838, 36.4925533], [139.0141201, 36.4925016], [139.0143792, 36.4924307], [139.0145624, 36.492371], [139.0147453, 36.4922886], [139.0148528, 36.492203], [139.0149636, 36.4920981], [139.0151727, 36.4920169], [139.015491, 36.492055], [139.0167181, 36.4917655]]}}, {"type": "Feature", "properties": {"fcode": "46000", "WATER_TYPE": "river", "AREAL": "no", "NAME": "\u5e73\u6ca2\u5ddd", "OSM_ID": "way/722143044", "SOURCE": "OpenStreetMap", "waterway": "river"}, "geometry": {"type": "LineString", "coordinates": [[139.0093649, 36.493436], [139.009705, 36.4934122]]}}, {"type": "Feature", "properties": {"fcode": "46000", "WATER_TYPE": "river", "AREAL": "no", "NAME": "\u5e73\u6ca2\u5ddd", "OSM_ID": "way/722163908", "SOURCE": "OpenStreetMap", "waterway": "river"}, "geometry": {"type": "LineString", "coordinates": [[138.9914412, 36.4987212], [138.9918947, 36.4986181], [138.9922463, 36.4985059], [138.9931077, 36.4982259], [138.9934852, 36.4981612], [138.9940331, 36.4981155], [138.994385, 36.498051], [138.9945394, 36.4980129], [138.994688, 36.4979418], [138.9948768, 36.4978381], [138.9951421, 36.4976327], [138.9954323, 36.4973513], [138.995895, 36.497101], [138.9962649, 36.4968894], [138.9967616, 36.4965587], [138.9969693, 36.4964194], [138.997086, 36.4963313], [138.997345, 36.496098], [138.997589, 36.495926], [138.997757, 36.4958], [138.998016, 36.495693], [138.998993, 36.495331], [138.9994312, 36.495122], [138.9996369, 36.4950705], [138.999863, 36.4950286], [139.0006039, 36.4949056], [139.0007625, 36.4948648], [139.0009924, 36.4948049], [139.0013004, 36.4946825], [139.0016036, 36.4946022], [139.0025726, 36.4945002], [139.004318, 36.494373], [139.005951, 36.494236], [139.0060252, 36.4942279], [139.0062917, 36.4941985], [139.0064847, 36.4941549], [139.0066975, 36.4940967], [139.006899, 36.4940266], [139.007675, 36.493683], [139.007829, 36.4936178], [139.0080881, 36.4935745], [139.0093649, 36.493436]]}}, {"type": "Feature", "properties": {"fcode": "33600", "WATER_TYPE": "canal", "AREAL": "no", "NAME": "", "OSM_ID": "way/722163922", "SOURCE": "OpenStreetMap", "waterway": "canal"}, "geometry": {"type": "LineString", "coordinates": [[139.0158381, 36.501272], [139.0173008, 36.5004164], [139.0179811, 36.5000277], [139.0181632, 36.4998705]]}}, {"type": "Feature", "properties": {"fcode": "33600", "WATER_TYPE": "canal", "AREAL": "no", "NAME": "", "OSM_ID": "way/722163923", "SOURCE": "OpenStreetMap", "waterway": "canal"}, "geometry": {"type": "LineString", "coordinates": [[139.0063481, 36.5036754], [139.0067617, 36.5036361], [139.0074255, 36.5037049], [139.007796, 36.5037219], [139.0079629, 36.5037688], [139.0091257, 36.5042324], [139.0103037, 36.5046099], [139.0105496, 36.5046673], [139.0107665, 36.5046875], [139.0111128, 36.5046658], [139.0113218, 36.5046321], [139.0115589, 36.5045439], [139.0116912, 36.5044667], [139.0121694, 36.5039797], [139.0132858, 36.5029093], [139.0140098, 36.5023574], [139.0149319, 36.5017973]]}}, {"type": "Feature", "properties": {"fcode": "33600", "WATER_TYPE": "canal", "AREAL": "no", "NAME": "", "OSM_ID": "way/722163924", "SOURCE": "OpenStreetMap", "waterway": "canal"}, "geometry": {"type": "LineString", "coordinates": [[139.0058767, 36.5039263], [139.0063481, 36.5036754]]}}, {"type": "Feature", "properties": {"fcode": "46000", "WATER_TYPE": "water", "AREAL": "yes", "NAME": "", "OSM_ID": "way/722163925", "SOURCE": "OpenStreetMap", "natural": "water"}, "geometry": {"type": "Polygon", "coordinates": [[[139.0149164, 36.501784], [139.0149954, 36.5017023], [139.0151173, 36.5015644], [139.0152482, 36.5014574], [139.0154536, 36.5013449], [139.0155709, 36.501305], [139.015668, 36.5012869], [139.0158395, 36.5012138], [139.0158942, 36.5012661], [139.0158327, 36.501325], [139.0157425, 36.5014284], [139.0156454, 36.5015372], [139.0154807, 36.5016497], [139.0153475, 36.501706], [139.0152572, 36.5017441], [139.0151647, 36.5017604], [139.0149458, 36.5018094], [139.0149319, 36.5017973], [139.0149164, 36.501784]]]}}, {"type": "Feature", "properties": {"fcode": "46006", "WATER_TYPE": "stream", "AREAL": "no", "NAME": "", "OSM_ID": "way/722163928", "SOURCE": "OpenStreetMap", "waterway": "stream"}, "geometry": {"type": "LineString", "coordinates": [[139.0134936, 36.4963513], [139.013767, 36.4961293], [139.0138426, 36.4960862], [139.0140596, 36.4960388], [139.0142644, 36.4959979], [139.0143166, 36.4959747], [139.0143289, 36.4959559], [139.014344, 36.4959128], [139.0143028, 36.4957085], [139.0143015, 36.4956687], [139.0143303, 36.4956356], [139.0144608, 36.4955793], [139.0145446, 36.4955395], [139.0147631, 36.4954986], [139.014873, 36.4955042], [139.0149939, 36.4953816], [139.0156474, 36.494807], [139.0163835, 36.4946734]]}}, {"type": "Feature", "properties": {"fcode": "46006", "WATER_TYPE": "stream", "AREAL": "no", "NAME": "", "OSM_ID": "way/722163929", "SOURCE": "OpenStreetMap", "waterway": "stream"}, "geometry": {"type": "LineString", "coordinates": [[139.0134872, 36.4969803], [139.0135265, 36.496762], [139.0134936, 36.4963513]]}}, {"type": "Feature", "properties": {"fcode": "46006", "WATER_TYPE": "stream", "AREAL": "no", "NAME": "", "OSM_ID": "way/722163930", "SOURCE": "OpenStreetMap", "waterway": "stream"}, "geometry": {"type": "LineString", "coordinates": [[139.0128229, 36.4970234], [139.0129608, 36.4970509], [139.0132126, 36.4970931], [139.0132854, 36.4970927], [139.0133548, 36.4970889], [139.0133974, 36.4970793], [139.0134295, 36.4970627], [139.0134695, 36.4970187], [139.0134872, 36.4969803]]}}, {"type": "Feature", "properties": {"fcode": "46006", "WATER_TYPE": "stream", "AREAL": "no", "NAME": "", "OSM_ID": "way/722163931", "SOURCE": "OpenStreetMap", "waterway": "stream"}, "geometry": {"type": "LineString", "coordinates": [[139.0123775, 36.4972968], [139.0124179, 36.4973128], [139.0126973, 36.4970104], [139.0128229, 36.4970234]]}}, {"type": "Feature", "properties": {"fcode": "46006", "WATER_TYPE": "stream", "AREAL": "no", "NAME": "", "OSM_ID": "way/722163932", "SOURCE": "OpenStreetMap", "waterway": "stream"}, "geometry": {"type": "LineString", "coordinates": [[139.0102059, 36.4968002], [139.0107836, 36.4968736], [139.0112356, 36.4968939], [139.0113114, 36.4969015], [139.0115095, 36.4969609], [139.0115522, 36.4969708], [139.0117101, 36.4969726], [139.0117351, 36.4969791], [139.0119907, 36.4971128], [139.0122001, 36.4972182], [139.0123775, 36.4972968]]}}, {"type": "Feature", "properties": {"fcode": "46006", "WATER_TYPE": "stream", "AREAL": "no", "NAME": "", "OSM_ID": "way/722163933", "SOURCE": "OpenStreetMap", "waterway": "stream"}, "geometry": {"type": "LineString", "coordinates": [[139.010059, 36.4967744], [139.0102059, 36.4968002]]}}, {"type": "Feature", "properties": {"fcode": "46006", "WATER_TYPE": "stream", "AREAL": "no", "NAME": "\u524d\u9ed2\u6ca2", "OSM_ID": "way/878541400", "SOURCE": "OpenStreetMap", "waterway": "stream"}, "geometry": {"type": "LineString", "coordinates": [[139.0335811, 36.5063493], [139.032972, 36.5060444], [139.0329501, 36.5059996], [139.0329259, 36.5058189], [139.03289, 36.505796], [139.0326509, 36.5057517], [139.0325691, 36.5057405], [139.0324185, 36.5058176], [139.0323021, 36.505851], [139.03186, 36.505714], [139.031662, 36.505695], [139.031296, 36.505589], [139.030991, 36.50552], [139.030762, 36.505482], [139.030334, 36.505459], [139.030197, 36.505424], [139.030029, 36.505363], [139.029602, 36.505241], [139.029205, 36.505138], [139.029083, 36.505116], [139.028931, 36.50507], [139.028534, 36.505005], [139.028183, 36.504986], [139.027954, 36.504993], [139.027802, 36.505009], [139.027451, 36.505005], [139.027206, 36.504993], [139.027008, 36.504971], [139.026733, 36.504971], [139.02655, 36.504993], [139.026367, 36.504993], [139.026047, 36.504963], [139.025986, 36.504951]]}}, {"type": "Feature", "properties": {"fcode": "46006", "WATER_TYPE": "stream", "AREAL": "no", "NAME": "\u5f8c\u9ed2\u6ca2", "OSM_ID": "way/1151194841", "SOURCE": "OpenStreetMap", "waterway": "stream"}, "geometry": {"type": "LineString", "coordinates": [[139.0313744, 36.5085667], [139.0310937, 36.5084933], [139.0309127, 36.5083707], [139.030701, 36.508144], [139.030563, 36.508095], [139.030441, 36.507999], [139.030167, 36.507622], [139.030075, 36.507542], [139.030045, 36.507504], [139.029892, 36.507458], [139.029755, 36.507442], [139.029556, 36.507359], [139.029541, 36.507339], [139.029495, 36.507278], [139.029373, 36.507114], [139.029083, 36.506805], [139.028885, 36.506683], [139.028748, 36.506641], [139.028564, 36.506653], [139.028244, 36.506756], [139.028137, 36.506771], [139.027863, 36.506779], [139.027618, 36.506744], [139.027313, 36.506664], [139.027222, 36.506615], [139.0271, 36.506489], [139.026978, 36.506332], [139.026886, 36.506119], [139.026855, 36.506046], [139.026718, 36.505821], [139.026657, 36.505672], [139.026489, 36.505501], [139.026108, 36.505116], [139.026031, 36.50502], [139.025986, 36.504951]]}}, {"type": "Feature", "properties": {"fcode": "46006", "WATER_TYPE": "stream", "AREAL": "no", "NAME": "\u5929\u795e\u6ca2\u5ddd", "OSM_ID": "way/1349983684", "SOURCE": "OpenStreetMap", "waterway": "stream"}, "geometry": {"type": "LineString", "coordinates": [[139.0073425, 36.503477], [139.0074431, 36.5035335], [139.007547, 36.5035345], [139.0075795, 36.5035369], [139.0075805, 36.5036787], [139.0083437, 36.5040074]]}}, {"type": "Feature", "properties": {"fcode": "46006", "WATER_TYPE": "stream", "AREAL": "no", "NAME": "\u5929\u795e\u6ca2\u5ddd", "OSM_ID": "way/1349983685", "SOURCE": "OpenStreetMap", "waterway": "stream"}, "geometry": {"type": "LineString", "coordinates": [[139.0072419, 36.5034205], [139.0073425, 36.503477]]}}, {"type": "Feature", "properties": {"fcode": "33600", "WATER_TYPE": "canal", "AREAL": "no", "NAME": "", "OSM_ID": "way/1359264252", "SOURCE": "OpenStreetMap", "waterway": "canal"}, "geometry": {"type": "LineString", "coordinates": [[139.0149319, 36.5017973], [139.0154941, 36.5014557], [139.0157114, 36.5013236], [139.0158381, 36.501272]]}}, {"type": "Feature", "properties": {"fcode": "33600", "WATER_TYPE": "canal", "AREAL": "no", "NAME": "", "OSM_ID": "way/1533148690", "SOURCE": "OpenStreetMap", "waterway": "canal"}, "geometry": {"type": "LineString", "coordinates": [[139.0041938, 36.5039967], [139.0043045, 36.5039935]]}}]}